{"type":"FeatureCollection","features":[{"type":"Feature","geometry":{"type":"Point","coordinates":[24.033065,49.839421,0]},"properties":{"name":"Валова","description":{"@type":"html","value":"1 зона (спеціально обладнаний паркувальний майданчик), 45 грн/год<br><br>Кількість паркувальних місць:<br>Загально - 78<br>Для осіб з інвалідністю - 8"},"styleUrl":"#icon-1644-E65100","label-scale":0,"icon-opacity":1,"icon-color":"#e65100","icon-scale":1,"icon":"https://www.gstatic.com/mapspro/images/stock/503-wht-blank_maps.png"}},{"type":"Feature","geometry":{"type":"Point","coordinates":[24.027935,49.84288,0]},"properties":{"name":"Вернісаж","description":{"@type":"html","value":"1 зона (спеціально обладнаний паркувальний майданчик), 45 грн/год<br><br>Кількість паркувальних місць:<br>Загально - 73<br>Для осіб з інвалідністю - 7"},"styleUrl":"#icon-1644-E65100","label-scale":0,"icon-opacity":1,"icon-color":"#e65100","icon-scale":1,"icon":"https://www.gstatic.com/mapspro/images/stock/503-wht-blank_maps.png"}},{"type":"Feature","geometry":{"type":"Point","coordinates":[24.035098,49.841811,0]},"properties":{"name":"вул.Підвальна","description":{"@type":"html","value":"1 зона, 1 сектор <br>35 грн/год<br><br>Способи оплати:<br>Безготівково:<br>- через застосунки UNIP, EasyPay, Приват24 <br>Готівкою: <br>-  через термінал EasyPay: вул.Руська, 18, вул.Галицька, 19, вул.Підвальна, 9/2<br><br>Кількість паркувальних місць:<br>Загально - 17<br>Для осіб з інвалідністю - 2"},"styleUrl":"#icon-1644-0288D1","label-scale":0,"icon-opacity":1,"icon-color":"#0288d1","icon-scale":1,"icon":"https://www.gstatic.com/mapspro/images/stock/503-wht-blank_maps.png"}},{"type":"Feature","geometry":{"type":"Point","coordinates":[24.029901,49.844193,0]},"properties":{"name":"вул.Гавришкевича","description":{"@type":"html","value":"1 зона, 1 сектор<br>35 грн/год<br><br>Способи оплати:<br>Безготівково:<br>- через застосунки UNIP, EasyPay, Приват24 <br>Готівкою: <br>-  через термінал EasyPay: вул. Гавришкевича, 2, вул. Лесі Українки, 11 (маг. \"Рукавичка\")<br>- через термінал Сіті24: пл. Д.Галицького, 10/3 вул. Краківська ,30<br><br>Кількість паркувальних місць:<br>Загально - 27<br>Для осіб з інвалідністю - 3"},"styleUrl":"#icon-1644-0288D1","label-scale":0,"icon-opacity":1,"icon-color":"#0288d1","icon-scale":1,"icon":"https://www.gstatic.com/mapspro/images/stock/503-wht-blank_maps.png"}},{"type":"Feature","geometry":{"type":"Point","coordinates":[24.030622,49.839117,0]},"properties":{"name":"пл.Міцкевича","description":{"@type":"html","value":"1 зона, 1 сектор<br>35 грн/год<br><br>Способи оплати:<br>Безготівково:<br>- через застосунки UNIP, EasyPay, Приват24<br>Готівкою:<br>- через термінал EasyPay: пл.Міцкевича, 5<br><br>Кількість паркувальних місць:<br>Загально - 20<br>Для осіб з інвалідністю - 3"},"styleUrl":"#icon-1644-0288D1","label-scale":0,"icon-opacity":1,"icon-color":"#0288d1","icon-scale":1,"icon":"https://www.gstatic.com/mapspro/images/stock/503-wht-blank_maps.png"}},{"type":"Feature","geometry":{"type":"Point","coordinates":[24.029104,49.844336,0]},"properties":{"name":"пл. Князя Ярослава Осмомисла","description":{"@type":"html","value":"1 зона, 1 сектор<br>35 грн/год<br><br>Способи оплати:<br>Безготівково:<br>- через застосунки UNIP, EasyPay, Приват24<br>Готівкою:<br>- через термінал EasyPay: вул. Стара, 1<br>- через термінал Сіті24: пл. Князя Осмомисла, 10 ( у магазині \"МТА\")<br><br>Кількість паркувальних місць:<br>Загально - 6<br>Для осіб з інвалідністю - 1"},"styleUrl":"#icon-1644-0288D1","label-scale":0,"icon-opacity":1,"icon-color":"#0288d1","icon-scale":1,"icon":"https://www.gstatic.com/mapspro/images/stock/503-wht-blank_maps.png"}},{"type":"Feature","geometry":{"type":"Point","coordinates":[24.032886,49.835725,0]},"properties":{"name":"вул. Білозіра ","description":{"@type":"html","value":"2 зона, 2 - 4 сектор<br>25 грн/год<br><br>Способи оплати:<br>Безготівково:<br>- через застосунки UNIP, EasyPay, Приват24<br>Готівкою:<br>- через термінал EasyPay: вул. Князя Романа, 5<br> - через термінал Сіті24: вул. Кн. Романа, 9 (у магазині \"Близенько\")<br><br>Кількість паркувальних місць:<br>Загально - 19<br>Для осіб з інвалідністю - 2"},"styleUrl":"#icon-1644-0F9D58","label-scale":0,"icon-opacity":1,"icon-color":"#0f9d58","icon-scale":1,"icon":"https://www.gstatic.com/mapspro/images/stock/503-wht-blank_maps.png"}},{"type":"Feature","geometry":{"type":"Point","coordinates":[24.024838,49.845218,0]},"properties":{"name":"вул.Вагова","description":{"@type":"html","value":"2 зона, 2 - 2 сектор<br>25 грн/год<br><br>Способи оплати:<br>Безготівково:<br>- через застосунки UNIP, EasyPay, Приват24<br>Готівкою:<br>- через термінал EasyPay: вул. Куліша, 5, пр. Чорновола, 7(зуп. \"Готель Львів\")<br>- через термінал Сіті24: вул. Куліша, 9 (у магазині \"Близенько\")<br><br>Кількість паркувальних місць:<br>Загально - 12<br>Для осіб з інвалідністю - 1"},"styleUrl":"#icon-1644-0F9D58","label-scale":0,"icon-opacity":1,"icon-color":"#0f9d58","icon-scale":1,"icon":"https://www.gstatic.com/mapspro/images/stock/503-wht-blank_maps.png"}},{"type":"Feature","geometry":{"type":"Point","coordinates":[24.036373,49.842165,0]},"properties":{"name":"вул.Винниченка","description":{"@type":"html","value":"2 зона, 2 - 3 сектор<br>25 грн/год<br>(для легкового транспортного засобу)<br><br>Способи оплати:<br>Безготівково:<br>- через застосунки UNIP, EasyPay, Приват24<br>Готівкою:<br>- через термінал EasyPay: вул. Винниченка, 22 (біля Порохової вежі)<br><br>Кількість паркувальних місць:<br>Загально - 27<br>Для осіб з інвалідністю - 3"},"styleUrl":"#icon-1644-0F9D58","label-scale":0,"icon-opacity":1,"icon-color":"#0f9d58","icon-scale":1,"icon":"https://www.gstatic.com/mapspro/images/stock/503-wht-blank_maps.png"}},{"type":"Feature","geometry":{"type":"Point","coordinates":[24.031134,49.836438,0]},"properties":{"name":"вул.Волошина","description":{"@type":"html","value":"2 зона, 2 - 4 сектор<br>25 грн/год<br><br>Способи оплати:<br>Безготівково:<br>- через застосунки UNIP, EasyPay, Приват24<br>Готівкою:<br>- через термінал EasyPay: пр. Шевченка, 18 (маг. \"Рукавичка\"), пр. Шевченка, 14<br>- через термінали Сіті24: пр. Шевченка, 8 (у магазині \"Київстар\"), пр. Шевченка, 10 (у закладі \"Пузата хата\")<br><br>Кількість паркувальних місць:<br>Загально - 14<br>Для осіб з інвалідністю - 1"},"styleUrl":"#icon-1644-0F9D58","label-scale":0,"icon-opacity":1,"icon-color":"#0f9d58","icon-scale":1,"icon":"https://www.gstatic.com/mapspro/images/stock/503-wht-blank_maps.png"}},{"type":"Feature","geometry":{"type":"Point","coordinates":[24.020502,49.841744,0]},"properties":{"name":"вул.Гребінки","description":{"@type":"html","value":"2 зона, 2 - 5 сектор<br>25 грн/год<br><br>Способи оплати:<br>Безготівково:<br>- через застосунки UNIP, EasyPay, Приват24<br>Готівкою:<br>- через термінал EasyPay: вул. Городоцька, 25 (маг. \"Напої світу\"), вул. Городоцька, 37, 45<br>- через термінал Сіті24: вул. Лепкого, 11<br><br>Кількість паркувальних місць:<br>Загально - 13<br>Для осіб з інвалідністю - 1"},"styleUrl":"#icon-1644-0F9D58","label-scale":0,"icon-opacity":1,"icon-color":"#0f9d58","icon-scale":1,"icon":"https://www.gstatic.com/mapspro/images/stock/503-wht-blank_maps.png"}},{"type":"Feature","geometry":{"type":"Point","coordinates":[24.030619,49.835697,0]},"properties":{"name":"вул.Григоровича","description":{"@type":"html","value":"2 зона, 2 - 4 сектор<br>25 грн/год<br><br>Способи оплати:<br>Безготівково:<br>- через застосунки UNIP, EasyPay, Приват24<br>Готівкою:<br>- через термінал EasyPay: пр. Шевченка, 18 (маг. \"Рукавичка\"), пр. Шевченка, 14<br>- через термінал Сіті24: вул. Дудаєва, 18 (у магазині \"Продукти\")<br><br>Кількість паркувальних місць:<br>Загально - 13<br>Для осіб з інвалідністю - 1"},"styleUrl":"#icon-1644-0F9D58","label-scale":0,"icon-opacity":1,"icon-color":"#0f9d58","icon-scale":1,"icon":"https://www.gstatic.com/mapspro/images/stock/503-wht-blank_maps.png"}},{"type":"Feature","geometry":{"type":"Point","coordinates":[24.024483,49.841763,0]},"properties":{"name":"вул.Гнатюка","description":{"@type":"html","value":"2 зона, 2 - 5 сектор<br>25 грн/год<br><br>Способи оплати:<br>Безготівково:<br>- через застосунки UNIP, EasyPay, Приват24<br>Готівкою:<br>- через термінал EasyPay: вул. Гнатюка, 20<br><br>Кількість паркувальних місць:<br>Загально - 24<br>Для осіб з інвалідністю - 2"},"styleUrl":"#icon-1644-0F9D58","label-scale":0,"icon-opacity":1,"icon-color":"#0f9d58","icon-scale":1,"icon":"https://www.gstatic.com/mapspro/images/stock/503-wht-blank_maps.png"}},{"type":"Feature","geometry":{"type":"Point","coordinates":[24.031958,49.834898,0]},"properties":{"name":"вул.Грушевського","description":{"@type":"html","value":"2 зона, 2 - 4 сектор<br>25 грн/год<br><br>Способи оплати:<br>Безготівково:<br>- через застосунки UNIP, EasyPay, Приват24<br>Готівкою:<br>- через термінал EasyPay: вул. Грушевського, 9, 7 (маг. \"Близенько\")<br><br>Кількість паркувальних місць:<br>Загально - 21<br>Для осіб з інвалідністю - 2"},"styleUrl":"#icon-1644-0F9D58","label-scale":0,"icon-opacity":1,"icon-color":"#0f9d58","icon-scale":1,"icon":"https://www.gstatic.com/mapspro/images/stock/503-wht-blank_maps.png"}},{"type":"Feature","geometry":{"type":"Point","coordinates":[24.038682,49.84393,0]},"properties":{"name":"вул. Гуцульська","description":{"@type":"html","value":"2 зона, 2 - 3 сектор<br>25 грн/год<br><br>Способи оплати:<br>Безготівково:<br>- через застосунки UNIP, EasyPay, Приват24<br>Готівкою:<br>- через термінал EasyPay: вул. Винниченка, 22 (біля Порохової вежі)"},"styleUrl":"#icon-1644-0F9D58","label-scale":0,"icon-opacity":1,"icon-color":"#0f9d58","icon-scale":1,"icon":"https://www.gstatic.com/mapspro/images/stock/503-wht-blank_maps.png"}},{"type":"Feature","geometry":{"type":"Point","coordinates":[24.039341,49.839041,0]},"properties":{"name":"вул. Ігоря Дашка","description":{"@type":"html","value":"2 зона, 2 - 3 сектор<br>25 грн/год<br><br>Способи оплати:<br>Безготівково:<br>- через застосунки UNIP, EasyPay, Приват24<br>Готівкою:<br>- через термінал EasyPay: вул. Пекарська, 26, вул. Личаківська, 7<br>- через термінали Сіті24:  вул. Личаківська, 4/6 (у магазині \"Близенько\")вул. Пекарська, 11а (у магазині \"Hud Fud\") <br><br>Кількість паркувальних місць:<br>Загально - 16<br>Для осіб з інвалідністю - 2"},"styleUrl":"#icon-1644-0F9D58","label-scale":0,"icon-opacity":1,"icon-color":"#0f9d58","icon-scale":1,"icon":"https://www.gstatic.com/mapspro/images/stock/503-wht-blank_maps.png"}},{"type":"Feature","geometry":{"type":"Point","coordinates":[24.031447,49.834885,0]},"properties":{"name":"вул.Драгоманова","description":{"@type":"html","value":"2 зона, 2 - 4 сектор<br>25 грн/год<br><br>Способи оплати:<br>Безготівково:<br>- через застосунки UNIP, EasyPay, Приват24<br>Готівкою:<br>- через термінал EasyPay: вул. Грушевського, 9, 7 (маг. \"Близенько\")<br><br>Кількість паркувальних місць:<br>Загально - 17<br>Для осіб з інвалідністю - 2"},"styleUrl":"#icon-1644-0F9D58","label-scale":0,"icon-opacity":1,"icon-color":"#0f9d58","icon-scale":1,"icon":"https://www.gstatic.com/mapspro/images/stock/503-wht-blank_maps.png"}},{"type":"Feature","geometry":{"type":"Point","coordinates":[24.022899,49.844078,0]},"properties":{"name":"вул. Д. Данилишина","description":{"@type":"html","value":"2 зона, 2 - 1 сектор<br>25 грн/год<br><br>Способи оплати:<br>Безготівково:<br>- через застосунки UNIP, EasyPay, Приват24<br>Готівкою:<br>- через термінал EasyPay: вул. Шпитальна, 9<br><br>Кількість паркувальних місць:<br>Загально - 6<br>Для осіб з інвалідністю - 1"},"styleUrl":"#icon-1644-0F9D58","label-scale":0,"icon-opacity":1,"icon-color":"#0f9d58","icon-scale":1,"icon":"https://www.gstatic.com/mapspro/images/stock/503-wht-blank_maps.png"}},{"type":"Feature","geometry":{"type":"Point","coordinates":[24.028914,49.836064,0]},"properties":{"name":"вул.Дудаєва","description":{"@type":"html","value":"2 зона, 2 - 4 сектор<br>25 грн/год<br><br>Способи оплати:<br>Безготівково:<br>- через застосунки UNIP, EasyPay, Приват24<br>Готівкою:<br>- через термінал EasyPay: вул. Скорика, 6<br>- через термінал Сіті24: вул. Дудаєва, 18 (у магазині \"Продукти\")<br> <br>Кількість паркувальних місць:<br>Загально - 21<br>Для осіб з інвалідністю - 2"},"styleUrl":"#icon-1644-0F9D58","label-scale":0,"icon-opacity":1,"icon-color":"#0f9d58","icon-scale":1,"icon":"https://www.gstatic.com/mapspro/images/stock/503-wht-blank_maps.png"}},{"type":"Feature","geometry":{"type":"Point","coordinates":[24.023241,49.836462,0]},"properties":{"name":"вул. Коперника","description":{"@type":"html","value":"2 зона, 2 - 5 сектор<br>25 грн/год<br><br>Способи оплати:<br>Безготівково:<br>- через застосунки UNIP, EasyPay, Приват24<br>Готівкою:<br>- через термінал EasyPay: вул. Словацького, 4<br>- через термінали Сіті24:  вул. Коперника,32 (у банку \"А-Банк\"), вул. Коперника, 23а (у магазині \"Продукти\")<br><br>Кількість паркувальних місць:<br>Загально - 15<br>Для осіб з інвалідністю - 2"},"styleUrl":"#icon-1644-0F9D58","label-scale":0,"icon-opacity":1,"icon-color":"#0f9d58","icon-scale":1,"icon":"https://www.gstatic.com/mapspro/images/stock/503-wht-blank_maps.png"}},{"type":"Feature","geometry":{"type":"Point","coordinates":[24.030252,49.836875,0]},"properties":{"name":"вул.Ковжуна","description":{"@type":"html","value":"2 зона, 2 - 4 сектор<br>25 грн/год<br><br>Способи оплати:<br>Безготівково:<br>- через застосунки UNIP, EasyPay, Приват24<br>Готівкою:<br>-  через термінал EasyPay: вул. Скорика, 6<br><br>Кількість паркувальних місць:<br>Загально - 21<br>Для осіб з інвалідністю - 2"},"styleUrl":"#icon-1644-0F9D58","label-scale":0,"icon-opacity":1,"icon-color":"#0f9d58","icon-scale":1,"icon":"https://www.gstatic.com/mapspro/images/stock/503-wht-blank_maps.png"}},{"type":"Feature","geometry":{"type":"Point","coordinates":[24.024464,49.839718,0]},"properties":{"name":"вул.Костюшка","description":{"@type":"html","value":"2 зона, 2 - 5 сектор<br>25 грн/год<br><br>Способи оплати:<br>Безготівково:<br>- через застосунки UNIP, EasyPay, Приват24<br>Готівкою:<br>- через термінал EasyPay: вул. Січових Стрільців, 11, 12 (\"Пузата Хата\")<br>- через термінали Сіті24: вул. Костюшка, 6 (у магазині \"Свій маркет\"), вул. Січ. Стрільців, 12 (у закладі \"Пузата Хата\")<br><br>Кількість паркувальних місць:<br>Загально - 22<br>Для осіб з інвалідністю - 2"},"styleUrl":"#icon-1644-0F9D58","label-scale":0,"icon-opacity":1,"icon-color":"#0f9d58","icon-scale":1,"icon":"https://www.gstatic.com/mapspro/images/stock/503-wht-blank_maps.png"}},{"type":"Feature","geometry":{"type":"Point","coordinates":[24.033419,49.837284,0]},"properties":{"name":"вул.Князя Романа","description":{"@type":"html","value":"2 зона, 2 - 4 сектор<br>25 грн/год<br><br>Способи оплати:<br>Безготівково:<br>- через застосунки UNIP, EasyPay, Приват24<br>Готівкою:<br>-  через термінал EasyPay: вул. Князя Романа, 5 (дитяча бібліотека)<br>- через термінал Сіті24: вул. Князя Романа, 9 (у магазині \"Близенько\")<br><br>Кількість паркувальних місць:<br>Загально - 13<br>Для осіб з інвалідністю - 2"},"styleUrl":"#icon-1644-0F9D58","label-scale":0,"icon-opacity":1,"icon-color":"#0f9d58","icon-scale":1,"icon":"https://www.gstatic.com/mapspro/images/stock/503-wht-blank_maps.png"}},{"type":"Feature","geometry":{"type":"Point","coordinates":[24.026358,49.84556,0]},"properties":{"name":"вул.Лазнева","description":{"@type":"html","value":"2 зона, 2 - 2 сектор<br>25 грн/год<br><br>Способи оплати:<br>Безготівково:<br>- через застосунки UNIP, EasyPay, Приват24<br>Готівкою:<br>- через термінал EasyPay: вул. Стара, 1<br><br>Кількість паркувальних місць:<br>Загально - 6<br>Для осіб з інвалідністю - 1"},"styleUrl":"#icon-1644-0F9D58","label-scale":0,"icon-opacity":1,"icon-color":"#0f9d58","icon-scale":1,"icon":"https://www.gstatic.com/mapspro/images/stock/503-wht-blank_maps.png"}},{"type":"Feature","geometry":{"type":"Point","coordinates":[24.020265,49.842518,0]},"properties":{"name":"вул.Лепкого","description":{"@type":"html","value":"2 зона, 2 - 5 сектор<br>25 грн/год<br><br>Способи оплати:<br>Безготівково:<br>- через застосунки UNIP, EasyPay, Приват24<br>Готівкою:<br>- через термінал EasyPay: вул. Городоцька 37, 45<br>- через термінал Сіті24: вул. Лепкого, 11<br><br>Кількість паркувальних місць:<br>Загально - 18<br>Для осіб з інвалідністю - 2"},"styleUrl":"#icon-1644-0F9D58","label-scale":0,"icon-opacity":1,"icon-color":"#0f9d58","icon-scale":1,"icon":"https://www.gstatic.com/mapspro/images/stock/503-wht-blank_maps.png"}},{"type":"Feature","geometry":{"type":"Point","coordinates":[24.036733,49.843063,0]},"properties":{"name":"вул.Лисенка","description":{"@type":"html","value":"2 зона, 2 - 3 сектор<br>25 грн/год<br><br>Способи оплати:<br>Безготівково:<br>- через застосунки UNIP, EasyPay, Приват24<br>Готівкою:<br>- через термінал EasyPay: вул. Винниченка, 22 (біля Порохової вежі)<br><br>Кількість паркувальних місць:<br>Загально - 13<br>Для осіб з інвалідністю - 1"},"styleUrl":"#icon-1644-0F9D58","label-scale":0,"icon-opacity":1,"icon-color":"#0f9d58","icon-scale":1,"icon":"https://www.gstatic.com/mapspro/images/stock/503-wht-blank_maps.png"}},{"type":"Feature","geometry":{"type":"Point","coordinates":[24.030825,49.83794,0]},"properties":{"name":"пл. Маланюка","description":{"@type":"html","value":"2 зона, 2 - 4 сектор<br>25 грн/год<br><br>Способи оплати:<br>Безготівково:<br>- через застосунки UNIP, EasyPay, Приват24<br>Готівкою:<br>- через термінал EasyPay: вул. Скорика, 31, 6<br><br>Кількість паркувальних місць:<br>Загально - 15<br>Для осіб з інвалідністю - 2"},"styleUrl":"#icon-1644-0F9D58","label-scale":0,"icon-opacity":1,"icon-color":"#0f9d58","icon-scale":1,"icon":"https://www.gstatic.com/mapspro/images/stock/503-wht-blank_maps.png"}},{"type":"Feature","geometry":{"type":"Point","coordinates":[24.022189,49.841984,0]},"properties":{"name":"вул.Менцинського","description":{"@type":"html","value":"2 зона, 2 - 5 сектор<br>25 грн/год<br><br>Способи оплати:<br>Безготівково:<br>- через застосунки UNIP, EasyPay, Приват24<br>Готівкою:<br>-  через термінал EasyPay: вул. Городоцька, 25 (маг. \"Напої світу\")<br><br>Кількість паркувальних місць:<br>Загально - 12<br>Для осіб з інвалідністю - 1"},"styleUrl":"#icon-1644-0F9D58","label-scale":0,"icon-opacity":1,"icon-color":"#0f9d58","icon-scale":1,"icon":"https://www.gstatic.com/mapspro/images/stock/503-wht-blank_maps.png"}},{"type":"Feature","geometry":{"type":"Point","coordinates":[24.023434,49.843293,0]},"properties":{"name":"вул.Наливайка","description":{"@type":"html","value":"2 зона, 2 - 5 сектор<br>25 грн/год<br><br>Способи оплати:<br>Безготівково:<br>- через застосунки UNIP, EasyPay, Приват24<br>Готівкою:<br>-  через термінал EasyPay: вул. Городоцька, 25<br>- через термінал Сіті24:  вул. Наливайка, 20 (у магазині \"Близенько\")<br><br>Кількість паркувальних місць:<br>Загально - 21<br>Для осіб з інвалідністю - 2"},"styleUrl":"#icon-1644-0F9D58","label-scale":0,"icon-opacity":1,"icon-color":"#0f9d58","icon-scale":1,"icon":"https://www.gstatic.com/mapspro/images/stock/503-wht-blank_maps.png"}},{"type":"Feature","geometry":{"type":"Point","coordinates":[24.033395,49.834653,0]},"properties":{"name":"вул.Саксаганського","description":{"@type":"html","value":"2 зона, 2 - 4 сектор<br>25 грн/год<br><br>Способи оплати:<br>Безготівково:<br>- через застосунки UNIP, EasyPay, Приват24<br>Готівкою:<br>- через термінал EasyPay: вул. Грушевського, 9, вул. Франка, 30 (трамвайна зупинка)<br>- через термінал Сіті24: вул. І. Франка, 35 (у магазині \"Близенько\")<br><br>Кількість паркувальних місць:<br>Загально - 21<br>Для осіб з інвалідністю - 2"},"styleUrl":"#icon-1644-0F9D58","label-scale":0,"icon-opacity":1,"icon-color":"#0f9d58","icon-scale":1,"icon":"https://www.gstatic.com/mapspro/images/stock/503-wht-blank_maps.png"}},{"type":"Feature","geometry":{"type":"Point","coordinates":[24.025322,49.836984,0]},"properties":{"name":"вул.Стефаника","description":{"@type":"html","value":"2 зона, 2 - 4 сектор<br>25 грн/год<br><br>Способи оплати:<br>Безготівково:<br>- через застосунки UNIP, EasyPay, Приват24<br>Готівкою:<br>-  через термінал EasyPay: вул. Скорика, 31<br><br>Кількість паркувальних місць:<br>Загально - 11<br>Для осіб з інвалідністю - 1"},"styleUrl":"#icon-1644-0F9D58","label-scale":0,"icon-opacity":1,"icon-color":"#0f9d58","icon-scale":1,"icon":"https://www.gstatic.com/mapspro/images/stock/503-wht-blank_maps.png"}},{"type":"Feature","geometry":{"type":"Point","coordinates":[24.033518,49.835411,0]},"properties":{"name":"вул.Стецька","description":{"@type":"html","value":"2 зона, 2 - 4 сектор<br>25 грн/год<br><br>Способи оплати:<br>Безготівково:<br>- через застосунки UNIP, EasyPay, Приват24<br>Готівкою:<br>-  через термінал EasyPay: вул. Кн.Романа, 5, вул. Грушевського, 9 <br>- через термінал Сіті24: вул. Кн. Романа, 9 (у магазині \"Близенько\")<br><br>Кількість паркувальних місць:<br>Загально - 17<br>Для осіб з інвалідністю - 2"},"styleUrl":"#icon-1644-0F9D58","label-scale":0,"icon-opacity":1,"icon-color":"#0f9d58","icon-scale":1,"icon":"https://www.gstatic.com/mapspro/images/stock/503-wht-blank_maps.png"}},{"type":"Feature","geometry":{"type":"Point","coordinates":[24.027965,49.83609,0]},"properties":{"name":"вул.Стефаника (від пер. Скорика до пер. вул. Дудаєва)","description":{"@type":"html","value":"2 зона, 2 - 4 сектор<br>25 грн/год<br><br>Способи оплати:<br>Безготівково:<br>- через застосунки UNIP, EasyPay, Приват24<br>Готівкою:<br>- через термінал EasyPay: вул. Скорика, 31<br>- через термінал Сіті24: вул. Скорика, 31 (у магазині \"Рукавичка\")<br><br>Кількість паркувальних місць:<br>Загально - 36<br>Для осіб з інвалідністю - 4"},"styleUrl":"#icon-1644-0F9D58","label-scale":0,"icon-opacity":1,"icon-color":"#0f9d58","icon-scale":1,"icon":"https://www.gstatic.com/mapspro/images/stock/503-wht-blank_maps.png"}},{"type":"Feature","geometry":{"type":"Point","coordinates":[24.028096,49.846084,0]},"properties":{"name":"вул.Сянська","description":{"@type":"html","value":"2 зона, 2 - 2 сектор<br>25 грн/год<br><br>Способи оплати:<br>Безготівково:<br>- через застосунки UNIP, EasyPay, Приват24<br>Готівкою:<br>- через термінал EasyPay: вул. Стара, 1<br><br>Кількість паркувальних місць:<br>Загально - 15<br>Для осіб з інвалідністю - 2"},"styleUrl":"#icon-1644-0F9D58","label-scale":0,"icon-opacity":1,"icon-color":"#0f9d58","icon-scale":1,"icon":"https://www.gstatic.com/mapspro/images/stock/503-wht-blank_maps.png"}},{"type":"Feature","geometry":{"type":"Point","coordinates":[24.029008,49.837226,0]},"properties":{"name":"вул. Скорика","description":{"@type":"html","value":"2 зона, 2 - 4 сектор<br>25 грн/год<br><br>Способи оплати:<br>Безготівково:<br>- через застосунки UNIP, EasyPay, Приват24<br>Готівкою:<br>- через термінал EasyPay: вул. Скорика, 31, 6<br>- через термінал Сіті24: вул. Скорика, 31 (у магазині \"Рукавичка\")<br> <br>Кількість паркувальних місць:<br>Загально - 27<br>Для осіб з інвалідністю - 4"},"styleUrl":"#icon-1644-0F9D58","label-scale":0,"icon-opacity":1,"icon-color":"#0f9d58","icon-scale":1,"icon":"https://www.gstatic.com/mapspro/images/stock/503-wht-blank_maps.png"}},{"type":"Feature","geometry":{"type":"Point","coordinates":[24.022659,49.838822,0]},"properties":{"name":"вул.Словацького","description":{"@type":"html","value":"2 зона, 2 - 5 сектор<br>25 грн/год<br><br>Способи оплати:<br>Безготівково:<br>- через застосунки UNIP, EasyPay, Приват24<br><br>Готівкою:<br>- через термінал EasyPay: вул. Словацького, 8<br>- через термінал Сіті24:  вул. Коперника, 32 (у банку \"А-Банк\")<br><br>Кількість паркувальних місць:<br>Загально - 34<br>Для осіб з інвалідністю - 3"},"styleUrl":"#icon-1644-0F9D58","label-scale":0,"icon-opacity":1,"icon-color":"#0f9d58","icon-scale":1,"icon":"https://www.gstatic.com/mapspro/images/stock/503-wht-blank_maps.png"}},{"type":"Feature","geometry":{"type":"Point","coordinates":[24.024189,49.840271,0]},"properties":{"name":"вул.Січових Стрільців","description":{"@type":"html","value":"2 зона, 2 - 5 сектор<br>25 грн/год<br><br>Способи оплати:<br>Безготівково:<br>- через застосунки UNIP, EasyPay, Приват24<br>Готівкою:<br>- через термінал EasyPay: вул. Січових Стрільців, 12, 11<br>- через термінал Сіті24: вул. Січових Стрільців, 12 (у закладі \"Пузата Хата\")<br><br>Кількість паркувальних місць:<br>Загально - 12<br>Для осіб з інвалідністю - 1"},"styleUrl":"#icon-1644-0F9D58","label-scale":0,"icon-opacity":1,"icon-color":"#0f9d58","icon-scale":1,"icon":"https://www.gstatic.com/mapspro/images/stock/503-wht-blank_maps.png"}},{"type":"Feature","geometry":{"type":"Point","coordinates":[24.028544,49.836704,0]},"properties":{"name":"вул.Томашівського","description":{"@type":"html","value":"2 зона, 2 - 4 сектор<br>25 грн/год<br><br>Способи оплати:<br>Безготівково:<br>- через застосунки UNIP, EasyPay, Приват24<br>Готівкою:<br>- через термінал EasyPay: вул. Скорика, 31<br>- через термінал Сіті24: вул. Дудаєва, 18 (у магазині \"Продукти\")<br><br>Кількість паркувальних місць:<br>Загально - 8<br>Для осіб з інвалідністю - 1"},"styleUrl":"#icon-1644-0F9D58","label-scale":0,"icon-opacity":1,"icon-color":"#0f9d58","icon-scale":1,"icon":"https://www.gstatic.com/mapspro/images/stock/503-wht-blank_maps.png"}},{"type":"Feature","geometry":{"type":"Point","coordinates":[24.033609,49.836568,0]},"properties":{"name":"вул.Фредра","description":{"@type":"html","value":"2 зона, 2 - 4 сектор<br>25 грн/год<br><br>Способи оплати:<br>Безготівково:<br>- через застосунки UNIP, EasyPay, Приват24<br>Готівкою:<br>- через термінал EasyPay: вул. Князя Романа, 5<br>- через термінал Сіті24: вул. Кн. Романа, 9 (у магазині \"Близенько\")<br><br>Кількість паркувальних місць:<br>Загально - 14<br>Для осіб з інвалідністю - 1"},"styleUrl":"#icon-1644-0F9D58","label-scale":0,"icon-opacity":1,"icon-color":"#0f9d58","icon-scale":1,"icon":"https://www.gstatic.com/mapspro/images/stock/503-wht-blank_maps.png"}},{"type":"Feature","geometry":{"type":"Point","coordinates":[24.037094,49.837931,0]},"properties":{"name":"вул.Пекарська","description":{"@type":"html","value":"2 зона, 2 - 3 сектор<br>25 грн/год<br><br>Способи оплати:<br>Безготівково:<br>- через застосунки UNIP, EasyPay, Приват24<br>Готівкою:<br>- через термінал EasyPay: вул. Пекарська, 14 (маг. \"Близенько\"), пл. Соборна, 12 (зупинка)<br>- через термінал Сіті24: вул. Пекарська, 11-А ( у магазині \"Hud Fud\")<br> <br>Кількість паркувальних місць:<br>Загально - 28<br>Для осіб з інвалідністю - 3"},"styleUrl":"#icon-1644-0F9D58","label-scale":0,"icon-opacity":1,"icon-color":"#0f9d58","icon-scale":1,"icon":"https://www.gstatic.com/mapspro/images/stock/503-wht-blank_maps.png"}},{"type":"Feature","geometry":{"type":"Point","coordinates":[24.038237,49.84203,0]},"properties":{"name":"вул.Просвіти","description":{"@type":"html","value":"2 зона, 2 - 3 сектор<br>25 грн/год<br><br>Способи оплати:<br>Безготівково:<br>- через застосунки UNIP, EasyPay, Приват24<br>Готівкою:<br>- через термінал EasyPay: вул. Винниченка, 22 (біля Порохової вежі)<br><br>Кількість паркувальних місць:<br>Загально - 34<br>Для осіб з інвалідністю - 3"},"styleUrl":"#icon-1644-0F9D58","label-scale":0,"icon-opacity":1,"icon-color":"#0f9d58","icon-scale":1,"icon":"https://www.gstatic.com/mapspro/images/stock/503-wht-blank_maps.png"}},{"type":"Feature","geometry":{"type":"Point","coordinates":[24.031075,49.838312,0]},"properties":{"name":"просп.Шевченка","description":{"@type":"html","value":"2 зона, 2 - 4 сектор<br>25 грн/год<br><br>Способи оплати:<br>Безготівково:<br>- через застосунки UNIP, EasyPay, Приват24<br>Готівкою:<br>- через термінал EasyPay: пр. Шевченка, 18 (маг. \"Рукавичка\"), пр. Шевченка, 14<br>- через термінали Сіті24:  пр. Шевченка, 8 (у магазині \"Київстар\"), пр. Шевченка, 10 (у закладі \"Пузата хата\")<br><br>Кількість паркувальних місць:<br>Загально - 80<br>Для осіб з інвалідністю - 8"},"styleUrl":"#icon-1644-0F9D58","label-scale":0,"icon-opacity":1,"icon-color":"#0f9d58","icon-scale":1,"icon":"https://www.gstatic.com/mapspro/images/stock/503-wht-blank_maps.png"}},{"type":"Feature","geometry":{"type":"Point","coordinates":[24.039082,49.840245,0]},"properties":{"name":"вул. Тараса Бобанича","description":{"@type":"html","value":"2 зона, 2 - 3 сектор<br>25 грн/год<br><br>Способи оплати:<br>Безготівково:<br>- через застосунки UNIP, EasyPay, Приват24<br>Готівкою:<br>- через термінал EasyPay: вул. Личаківська, 7, 15 (магазин \"Рукавичка\")<br><br>Кількість паркувальних місць:<br>Загально - 16<br>Для осіб з інвалідністю - 2"},"styleUrl":"#icon-1644-0F9D58","label-scale":0,"icon-opacity":1,"icon-color":"#0f9d58","icon-scale":1,"icon":"https://www.gstatic.com/mapspro/images/stock/503-wht-blank_maps.png"}},{"type":"Feature","geometry":{"type":"Point","coordinates":[24.021652,49.837135,0]},"properties":{"name":"вул.Дорошенка","description":{"@type":"html","value":"3 зона, 3 - 7 сектор<br>20 грн/год<br><br>Способи оплати:<br>Безготівково:<br>- через застосунки UNIP, EasyPay, Приват24<br>Готівкою:<br>- через термінал EasyPay: вул. Дорошенка, 37 (маг. \"Рукавичка\")<br>- через термінал Сіті24:  вул. Дорошенка, 48 (у магазині \"Близенько)<br><br>Кількість паркувальних місць:<br>Загально - 17<br>Для осіб з інвалідністю - 2"},"styleUrl":"#icon-1644-9C27B0","label-scale":0,"icon-opacity":1,"icon-color":"#9c27b0","icon-scale":1,"icon":"https://www.gstatic.com/mapspro/images/stock/503-wht-blank_maps.png"}},{"type":"Feature","geometry":{"type":"Point","coordinates":[24.020276,49.849582,0]},"properties":{"name":"вул.Джерельна","description":{"@type":"html","value":"3 зона, 3 - 1 сектор<br>20 грн/год<br><br>Способи оплати:<br>Безготівково:<br>- через застосунки UNIP, EasyPay, Приват24<br>Готівкою:<br>- через термінал EasyPay: вул. Джерельна, 1,27,2Б<br><br>Кількість паркувальних місць:<br>Загально - 42<br>Для осіб з інвалідністю - 4"},"styleUrl":"#icon-1644-9C27B0","label-scale":0,"icon-opacity":1,"icon-color":"#9c27b0","icon-scale":1,"icon":"https://www.gstatic.com/mapspro/images/stock/503-wht-blank_maps.png"}},{"type":"Feature","geometry":{"type":"Point","coordinates":[24.023263,49.844742,0]},"properties":{"name":"вул.Шпитальна","description":{"@type":"html","value":"3 зона, 3 - 1 сектор<br>20 грн/год<br><br>Способи оплати:<br>Безготівково:<br>- через застосунки UNIP, EasyPay, Приват24<br>Готівкою:<br>- через термінал EasyPay: вул. Шпитальна, 13, 9<br>- через термінал Сіті24: вул. Шпитальна, 9 (у магазині Копійочка), 11 (у магазині АТБ)<br><br>Кількість паркувальних місць:<br>Загально - 20<br>Для осіб з інвалідністю - 2"},"styleUrl":"#icon-1644-9C27B0","label-scale":0,"icon-opacity":1,"icon-color":"#9c27b0","icon-scale":1,"icon":"https://www.gstatic.com/mapspro/images/stock/503-wht-blank_maps.png"}},{"type":"Feature","geometry":{"type":"Point","coordinates":[24.020136,49.847489,0]},"properties":{"name":"вул.Крехівська","description":{"@type":"html","value":"3 зона, 3 - 1 сектор<br>20 грн/год<br><br>Способи оплати:<br>Безготівково:<br>- через застосунки UNIP, EasyPay, Приват24<br>Готівкою:<br>- через термінал EasyPay: вул. Джерельна, 27<br><br>Кількість паркувальних місць:<br>Загально - 10<br>Для осіб з інвалідністю - 1"},"styleUrl":"#icon-1644-9C27B0","label-scale":0,"icon-opacity":1,"icon-color":"#9c27b0","icon-scale":1,"icon":"https://www.gstatic.com/mapspro/images/stock/503-wht-blank_maps.png"}},{"type":"Feature","geometry":{"type":"Point","coordinates":[24.019723,49.844927,0]},"properties":{"name":"вул.Раппапорта","description":{"@type":"html","value":"3 зона, 3 - 1 сектор<br>20 грн/год<br><br>Способи оплати:<br>Безготівково:<br>- через застосунки UNIP, EasyPay, Приват24<br>Готівкою:<br>- через термінал EasyPay: вул. Раппапорта, 5<br><br>Кількість паркувальних місць:<br>Загально - 31<br>Для осіб з інвалідністю - 3"},"styleUrl":"#icon-1644-9C27B0","label-scale":0,"icon-opacity":1,"icon-color":"#9c27b0","icon-scale":1,"icon":"https://www.gstatic.com/mapspro/images/stock/503-wht-blank_maps.png"}},{"type":"Feature","geometry":{"type":"Point","coordinates":[24.018901,49.841568,0]},"properties":{"name":"вул.Огієнка","description":{"@type":"html","value":"3 зона, 3 - 7 сектор<br>20 грн/год<br><br>Способи оплати:<br>Безготівково:<br>- через застосунки UNIP, EasyPay, Приват24<br>Готівкою:<br>- через термінал EasyPay: вул. Городоцька, 37, 45<br>- через термінал Сіті24: вул. І. Огієнка, 8 (у магазині \"Свій маркет)<br><br>Кількість паркувальних місць:<br>Загально - 15<br>Для осіб з інвалідністю - 2"},"styleUrl":"#icon-1644-9C27B0","label-scale":0,"icon-opacity":1,"icon-color":"#9c27b0","icon-scale":1,"icon":"https://www.gstatic.com/mapspro/images/stock/503-wht-blank_maps.png"}},{"type":"Feature","geometry":{"type":"Point","coordinates":[24.037097,49.835671,0]},"properties":{"name":"вул.К.Левицького","description":{"@type":"html","value":"3 зона, 3 - 4 сектор<br>20 грн/год<br><br>Способи оплати:<br>Безготівково:<br>- через застосунки UNIP, EasyPay, Приват24<br>Готівкою:<br>- через термінал EasyPay: вул. К.Левицького, 37<br>- через термінали Сіті24: вул. К. Левицького, 4 (у магазині \"Продукти\"), вул. К.Левицького, 15 (у магазині \"Свій Маркет\")<br><br>Кількість паркувальних місць:<br>Загально - 75<br>Для осіб з інвалідністю - 8"},"styleUrl":"#icon-1644-9C27B0","label-scale":0,"icon-opacity":1,"icon-color":"#9c27b0","icon-scale":1,"icon":"https://www.gstatic.com/mapspro/images/stock/503-wht-blank_maps.png"}},{"type":"Feature","geometry":{"type":"Point","coordinates":[24.019747,49.836736,0]},"properties":{"name":"вул.Крушельницької","description":{"@type":"html","value":"3 зона, 3 - 7 сектор<br>20 грн/год<br><br>Способи оплати:<br>Безготівково:<br>- через застосунки UNIP, EasyPay, Приват24<br>Готівкою:<br>- через термінал EasyPay: вул. Дорошенка, 37 (маг. \"Рукавичка\")<br><br>Кількість паркувальних місць:<br>Загально - 36<br>Для осіб з інвалідністю - 4"},"styleUrl":"#icon-1644-9C27B0","label-scale":0,"icon-opacity":1,"icon-color":"#9c27b0","icon-scale":1,"icon":"https://www.gstatic.com/mapspro/images/stock/503-wht-blank_maps.png"}},{"type":"Feature","geometry":{"type":"Point","coordinates":[24.025081,49.850452,0]},"properties":{"name":"вул. Під Дубом","description":{"@type":"html","value":"3 зона, 3 - 1 сектор<br>20 грн/год<br><br>Способи оплати:<br>Безготівково:<br>- через застосунки UNIP, EasyPay, Приват24<br>Готівкою:<br>- через термінал EasyPay: вул. Під Дубом, 2А, 4А<br>- через термінал Сіті24: вул. Під Дубом, 2 (у приміщенні \"А-Банк\")<br><br>Кількість паркувальних місць:<br>Загально - 31<br>Для осіб з інвалідністю - 3"},"styleUrl":"#icon-1644-9C27B0","label-scale":0,"icon-opacity":1,"icon-color":"#9c27b0","icon-scale":1,"icon":"https://www.gstatic.com/mapspro/images/stock/503-wht-blank_maps.png"}},{"type":"Feature","geometry":{"type":"Point","coordinates":[24.017732,49.837118,0]},"properties":{"name":"вул.Матейка","description":{"@type":"html","value":"3 зона, 3 - 7 сектор<br>20 грн/год<br><br>Способи оплати:<br>Безготівково:<br>- через застосунки UNIP, EasyPay, Приват24<br>Готівкою:<br>- через термінал EasyPay: вул. Листопадового Чину, 11 (магазин \"Маркет\"), Січових Стрільців, 16, 17, вул. Дорошенка, 37<br><br>Кількість паркувальних місць:<br>Загально - 7<br>Для осіб з інвалідністю - 1"},"styleUrl":"#icon-1644-9C27B0","label-scale":0,"icon-opacity":1,"icon-color":"#9c27b0","icon-scale":1,"icon":"https://www.gstatic.com/mapspro/images/stock/503-wht-blank_maps.png"}},{"type":"Feature","geometry":{"type":"Point","coordinates":[24.022836,49.845518,0]},"properties":{"name":"вул. Котлярська","description":{"@type":"html","value":"3 зона, 3 - 1 сектор<br>20 грн/год<br><br>Способи оплати:<br>Безготівково:<br>- через застосунки UNIP, EasyPay, Приват24<br>Готівкою:<br>- через термінал EasyPay: вул. Шпитальна, 13, 9<br>- через термінал Сіті24: вул. Шпитальна, 9 (у магазині Копійочка), 11 (у магазині \"АТБ\")<br><br>Кількість паркувальних місць:<br>Загально - 16<br>Для осіб з інвалідністю - 2"},"styleUrl":"#icon-1644-9C27B0","label-scale":0,"icon-opacity":1,"icon-color":"#9c27b0","icon-scale":1,"icon":"https://www.gstatic.com/mapspro/images/stock/503-wht-blank_maps.png"}},{"type":"Feature","geometry":{"type":"Point","coordinates":[24.014476,49.834053,0]},"properties":{"name":"вул. Політехнічна","description":{"@type":"html","value":"3 зона, 3 - 8 сектор<br>20 грн/год<br><br>Способи оплати:<br>Безготівково:<br>- через застосунки UNIP, EasyPay, Приват24<br>Готівкою:<br>- через термінал EasyPay: вул. С. Бандери, 17<br>- через термінал Сіті24: вул. С. Бандери,25 <br><br>Кількість паркувальних місць:<br>Загально - 10<br>Для осіб з інвалідністю - 2"},"styleUrl":"#icon-1644-9C27B0","label-scale":0,"icon-opacity":1,"icon-color":"#9c27b0","icon-scale":1,"icon":"https://www.gstatic.com/mapspro/images/stock/503-wht-blank_maps.png"}},{"type":"Feature","geometry":{"type":"Point","coordinates":[24.007549,49.834238,0]},"properties":{"name":"вул. Русових","description":{"@type":"html","value":"3 зона, 3 - 8 сектор<br>20 грн/год<br><br>Способи оплати:<br>Безготівково:<br>- через застосунки UNIP, EasyPay, Приват24<br>Готівкою:<br>- через термінал EasyPay: вул. С. Бандери, 71<br>- через термінал Сіті24: вул. С. Бандери, 25 <br><br>Кількість паркувальних місць:<br>Загально - 8<br>Для осіб з інвалідністю - 1"},"styleUrl":"#icon-1644-9C27B0","label-scale":0,"icon-opacity":1,"icon-color":"#9c27b0","icon-scale":1,"icon":"https://www.gstatic.com/mapspro/images/stock/503-wht-blank_maps.png"}},{"type":"Feature","geometry":{"type":"Point","coordinates":[24.002694,49.836522,0]},"properties":{"name":"вул. Тобілевича","description":{"@type":"html","value":"3 зона, 3 - 9 сектор<br>20 грн/год<br><br>Способи оплати:<br>Безготівково:<br>- через застосунки UNIP, EasyPay, Приват24<br>Готівкою:<br>- через термінал EasyPay: вул. Федьковича, 8, 26(маг. \"Близенько\")<br><br>Кількість паркувальних місць:<br>Загально - 22<br>Для осіб з інвалідністю - 2"},"styleUrl":"#icon-1644-9C27B0","label-scale":0,"icon-opacity":1,"icon-color":"#9c27b0","icon-scale":1,"icon":"https://www.gstatic.com/mapspro/images/stock/503-wht-blank_maps.png"}},{"type":"Feature","geometry":{"type":"Point","coordinates":[24.046954,49.836144,0]},"properties":{"name":"вул.Пекарська (від вул. Тершаковців до вул. Мечникова), вул. Шімзерів","description":{"@type":"html","value":"3 зона, 3 - 4 сектор<br>20 грн/год<br><br>Способи оплати:<br>Безготівково:<br>- через застосунки UNIP, EasyPay, Приват24<br>Готівкою:<br>- через термінал EasyPay: вул. Пекарська,33<br>- через термінал Сіті24: вул. Пекарська, 31 (у магазин \"Свій маркет\")<br><br>Кількість паркувальних місць:<br>Загально - 66<br>Для осіб з інвалідністю - 7"},"styleUrl":"#icon-1644-9C27B0","label-scale":0,"icon-opacity":1,"icon-color":"#9c27b0","icon-scale":1,"icon":"https://www.gstatic.com/mapspro/images/stock/503-wht-blank_maps.png"}},{"type":"Feature","geometry":{"type":"Point","coordinates":[24.015107,49.843129,0]},"properties":{"name":"вул. Шевченка","description":{"@type":"html","value":"3 зона, 3 - 10 сектор<br>20 грн/год<br><br>Способи оплати:<br>Безготівково:<br>- через застосунки UNIP, EasyPay, Приват24<br>Готівкою:<br>- через термінал EasyPay: вул. Шевченка, 24 <br>- через термінал Сіті24: вул. Шевченка, 42А (у магазині \"Близенько\")<br><br>Кількість паркувальних місць:<br>Загально - 33<br>Для осіб з інвалідністю - 4"},"styleUrl":"#icon-1644-9C27B0","label-scale":0,"icon-opacity":1,"icon-color":"#9c27b0","icon-scale":1,"icon":"https://www.gstatic.com/mapspro/images/stock/503-wht-blank_maps.png"}},{"type":"Feature","geometry":{"type":"Point","coordinates":[24.014498,49.834644,0]},"properties":{"name":"вул. Бандери","description":{"@type":"html","value":"3 зона, 3 - 8 сектор<br>20 грн/год<br><br>Способи оплати:<br>Безготівково:<br>- через застосунки UNIP, EasyPay, Приват24<br>Готівкою:<br>- через термінал EasyPay: вул. С. Бандери, 17, 71<br>- через термінали Сіті24: вул. С. Бандери, 15, 25 (у магазині \"Свій маркет\") 29, 69 (у магазині \"Близенько\")<br><br>Кількість паркувальних місць:<br>Загально - 70<br>Для осіб з інвалідністю - 7"},"styleUrl":"#icon-1644-9C27B0","label-scale":0,"icon-opacity":1,"icon-color":"#9c27b0","icon-scale":1,"icon":"https://www.gstatic.com/mapspro/images/stock/503-wht-blank_maps.png"}},{"type":"Feature","geometry":{"type":"Point","coordinates":[24.02026,49.84482,0]},"properties":{"name":"вул. Шолом-Алейхема","description":{"@type":"html","value":"3 зона, 3 - 1 сектор<br>20 грн/год<br><br>Способи оплати:<br>Безготівково:<br>- через застосунки UNIP, EasyPay, Приват24<br>Готівкою:<br>- через термінал EasyPay: вул. Городоцька, 37<br>- через термінал Сіті24: вул. Шолом Алейхема, 1 (у магазині \"Воля\")<br><br>Кількість паркувальних місць:<br>Загально - 22<br>Для осіб з інвалідністю - 3"},"styleUrl":"#icon-1644-9C27B0","label-scale":0,"icon-opacity":1,"icon-color":"#9c27b0","icon-scale":1,"icon":"https://www.gstatic.com/mapspro/images/stock/503-wht-blank_maps.png"}},{"type":"Feature","geometry":{"type":"Point","coordinates":[24.011488,49.835319,0]},"properties":{"name":"вул. Старосольських","description":{"@type":"html","value":"3 зона, 3 - 8 сектор<br>20 грн/год<br><br>Способи оплати:<br>Безготівково:<br>- через застосунки UNIP, EasyPay, Приват24<br>Готівкою:<br>- через термінал EasyPay: вул. Листопадового Чину, 11<br><br>Кількість паркувальних місць:<br>Загально - 17<br>Для осіб з інвалідністю - 2"},"styleUrl":"#icon-1644-9C27B0","label-scale":0,"icon-opacity":1,"icon-color":"#9c27b0","icon-scale":1,"icon":"https://www.gstatic.com/mapspro/images/stock/503-wht-blank_maps.png"}},{"type":"Feature","geometry":{"type":"Point","coordinates":[24.012883,49.835287,0]},"properties":{"name":"вул. Архітекторська","description":{"@type":"html","value":"3 зона, 3 - 8 сектор<br>20 грн/год<br><br>Способи оплати:<br>Безготівково:<br>- через застосунки UNIP, EasyPay, Приват24<br>Готівкою:<br>- через термінал EasyPay: вул. Листопадового Чину, 11, вул. С.Бандери, 17<br><br>Кількість паркувальних місць:<br>Загально - 14<br>Для осіб з інвалідністю - 2"},"styleUrl":"#icon-1644-9C27B0","label-scale":0,"icon-opacity":1,"icon-color":"#9c27b0","icon-scale":1,"icon":"https://www.gstatic.com/mapspro/images/stock/503-wht-blank_maps.png"}},{"type":"Feature","geometry":{"type":"Point","coordinates":[24.002063,49.834833,0]},"properties":{"name":"вул. Федьковича","description":{"@type":"html","value":"3 зона, 3 - 9 сектор<br>20 грн/год<br><br>Способи оплати:<br>Безготівково:<br>- через застосунки UNIP, EasyPay, Приват24<br>Готівкою:<br>- через термінал EasyPay: Федьковича, 6, Федьковича, 26 (маг. \"Близенько\")<br><br>Кількість паркувальних місць:<br>Загально - 36<br>Для осіб з інвалідністю - 4"},"styleUrl":"#icon-1644-9C27B0","label-scale":0,"icon-opacity":1,"icon-color":"#9c27b0","icon-scale":1,"icon":"https://www.gstatic.com/mapspro/images/stock/503-wht-blank_maps.png"}},{"type":"Feature","geometry":{"type":"Point","coordinates":[24.021061,49.845173,0]},"properties":{"name":"вул. Д. Гусяк","description":{"@type":"html","value":"3 зона, 3 - 1 сектор<br>20 грн/год<br><br>Способи оплати:<br>Безготівково:<br>- через застосунки UNIP, EasyPay, Приват24<br>Готівкою:<br>- через термінал EasyPay: вул. Шпитальна, 9, 13, 30<br><br>Кількість паркувальних місць:<br>Загально - 12<br>Для осіб з інвалідністю - 1"},"styleUrl":"#icon-1644-9C27B0","label-scale":0,"icon-opacity":1,"icon-color":"#9c27b0","icon-scale":1,"icon":"https://www.gstatic.com/mapspro/images/stock/503-wht-blank_maps.png"}},{"type":"Feature","geometry":{"type":"Point","coordinates":[24.009504,49.833091,0]},"properties":{"name":"вул. Київська","description":{"@type":"html","value":"3 зона, 3 - 8 сектор<br>20 грн/год<br><br>Способи оплати:<br>Безготівково:<br>- через застосунки UNIP, EasyPay, Приват24<br>Готівкою:<br>- через термінал EasyPay: вул. Коперника, 43, вул. Вербицького, 6<br>- через термінал Сіті24: вул. Глибока, 20 (у магазині \"Близенько\")<br><br>Кількість паркувальних місць:<br>Загально - 20<br>Для осіб з інвалідністю - 2"},"styleUrl":"#icon-1644-9C27B0","label-scale":0,"icon-opacity":1,"icon-color":"#9c27b0","icon-scale":1,"icon":"https://www.gstatic.com/mapspro/images/stock/503-wht-blank_maps.png"}},{"type":"Feature","geometry":{"type":"Point","coordinates":[24.016357,49.832777,0]},"properties":{"name":"вул. Нечуя-Левицького","description":{"@type":"html","value":"3 зона, 3 - 8 сектор<br>20 грн/год<br><br>Способи оплати:<br>Безготівково:<br>- через застосунки UNIP, EasyPay, Приват24<br>Готівкою:<br>- через термінал EasyPay: вул. Нечуя-Левицького, 7<br><br>Кількість паркувальних місць:<br>Загально - 10<br>Для осіб з інвалідністю - 1"},"styleUrl":"#icon-1644-9C27B0","label-scale":0,"icon-opacity":1,"icon-color":"#9c27b0","icon-scale":1,"icon":"https://www.gstatic.com/mapspro/images/stock/503-wht-blank_maps.png"}},{"type":"Feature","geometry":{"type":"Point","coordinates":[24.018912,49.833468,0]},"properties":{"name":"вул.Коперника (від. перехрестя з вул. Вербицького до вул. Грабовського)","description":{"@type":"html","value":"3 зона, 3 - 8 сектор<br>20 грн/год<br><br>Способи оплати:<br>Безготівково:<br>- через застосунки UNIP, EasyPay, Приват24<br>Готівкою:<br>- через термінал EasyPay: вул. Коперника, 43, вул. Вербицького, 6<br><br>Кількість паркувальних місць:<br>Загально - 11<br>Для осіб з інвалідністю - 1"},"styleUrl":"#icon-1644-9C27B0","label-scale":0,"icon-opacity":1,"icon-color":"#9c27b0","icon-scale":1,"icon":"https://www.gstatic.com/mapspro/images/stock/503-wht-blank_maps.png"}},{"type":"Feature","geometry":{"type":"Point","coordinates":[24.001277,49.835823,0]},"properties":{"name":"вул. Горської","description":{"@type":"html","value":"3 зона, 3 - 9 сектор<br>20 грн/год<br><br>Способи оплати:<br>Безготівково:<br>- через застосунки UNIP, EasyPay, Приват24<br>Готівкою:<br>- через термінал EasyPay: вул. Федьковича, 26 (маг. \"Близенько\"), вул. Горської, 9<br>- через термінал Сіті24: вул. Городоцька, 151 (біля магазину \"Взуття від виробника\")<br><br>Кількість паркувальних місць:<br>Загально - 18<br>Для осіб з інвалідністю - 2"},"styleUrl":"#icon-1644-9C27B0","label-scale":0,"icon-opacity":1,"icon-color":"#9c27b0","icon-scale":1,"icon":"https://www.gstatic.com/mapspro/images/stock/503-wht-blank_maps.png"}},{"type":"Feature","geometry":{"type":"Point","coordinates":[24.002481,49.834668,0]},"properties":{"name":"пл. Берестейської Унії","description":{"@type":"html","value":"3 зона, 3 - 9 сектор<br>20 грн/год<br><br>Способи оплати:<br>Безготівково:<br>- через застосунки UNIP, EasyPay, Приват24<br>Готівкою:<br>- через термінал EasyPay: вул. Федьковича, 26 (маг. \"Близенько\"), пл. Липнева, 9<br><br>Кількість паркувальних місць:<br>Загально - 41<br>Для осіб з інвалідністю - 4"},"styleUrl":"#icon-1644-9C27B0","label-scale":0,"icon-opacity":1,"icon-color":"#9c27b0","icon-scale":1,"icon":"https://www.gstatic.com/mapspro/images/stock/503-wht-blank_maps.png"}},{"type":"Feature","geometry":{"type":"Point","coordinates":[24.016547,49.838369,0]},"properties":{"name":"вул. Листопадового Чину","description":{"@type":"html","value":"3 зона, 3 - 7 сектор<br>20 грн/год<br><br>Способи оплати:<br>Безготівково:<br>- через застосунки UNIP, EasyPay, Приват24<br>Готівкою:<br>- через термінал EasyPay: вул. Листопадового Чину, 11 (маг. \"Маркет\")<br><br>Кількість паркувальних місць:<br>Загально - 35<br>Для осіб з інвалідністю - 4"},"styleUrl":"#icon-1644-9C27B0","label-scale":0,"icon-opacity":1,"icon-color":"#9c27b0","icon-scale":1,"icon":"https://www.gstatic.com/mapspro/images/stock/503-wht-blank_maps.png"}},{"type":"Feature","geometry":{"type":"Point","coordinates":[24.017833,49.833838,0]},"properties":{"name":"вул. Вербицького","description":{"@type":"html","value":"3 зона, 3 - 8 сектор<br>20 грн/год<br><br>Способи оплати:<br>Безготівково:<br>- через застосунки UNIP, EasyPay, Приват24<br>Готівкою:<br>- через термінал EasyPay: вул. Коперника, 43, вул. Вербицького, 6<br><br>Кількість паркувальних місць:<br>Загально - 20<br>Для осіб з інвалідністю - 2"},"styleUrl":"#icon-1644-9C27B0","label-scale":0,"icon-opacity":1,"icon-color":"#9c27b0","icon-scale":1,"icon":"https://www.gstatic.com/mapspro/images/stock/503-wht-blank_maps.png"}},{"type":"Feature","geometry":{"type":"Point","coordinates":[24.041114,49.833391,0]},"properties":{"name":"вул. Вагилевича","description":{"@type":"html","value":"3 зона, 3 - 4 сектор<br>20 грн/год<br><br>Способи оплати:<br>Безготівково:<br>- через застосунки UNIP, EasyPay, Приват24<br>Готівкою:<br>- через термінал EasyPay: вул. Зелена, 26<br>- через термінал Сіті24: вул. Зелена,28 (у магазині \"Свій маркет\")<br><br>Кількість паркувальних місць:<br>Загально - 9<br>Для осіб з інвалідністю - 1"},"styleUrl":"#icon-1644-9C27B0","label-scale":0,"icon-opacity":1,"icon-color":"#9c27b0","icon-scale":1,"icon":"https://www.gstatic.com/mapspro/images/stock/503-wht-blank_maps.png"}},{"type":"Feature","geometry":{"type":"Point","coordinates":[24.01093,49.834066,0]},"properties":{"name":"вул. Єфремова","description":{"@type":"html","value":"3 зона, 3 - 8 сектор<br>20 грн/год<br><br>Способи оплати:<br>Безготівково:<br>- через застосунки UNIP, EasyPay, Приват24<br>Готівкою:<br>- через термінал EasyPay: вул. Коновальця, 7<br><br>Кількість паркувальних місць:<br>Загально - 24<br>Для осіб з інвалідністю - 3"},"styleUrl":"#icon-1644-9C27B0","label-scale":0,"icon-opacity":1,"icon-color":"#9c27b0","icon-scale":1,"icon":"https://www.gstatic.com/mapspro/images/stock/503-wht-blank_maps.png"}},{"type":"Feature","geometry":{"type":"Point","coordinates":[24.009179,49.834364,0]},"properties":{"name":"вул. Коновальця","description":{"@type":"html","value":"3 зона, 3 - 8 сектор<br>20 грн/год<br><br>Способи оплати:<br>Безготівково:<br>- через застосунки UNIP, EasyPay, Приват24<br>Готівкою:<br>- через термінал EasyPay: вул. Коновальця, 7<br><br>Кількість паркувальних місць:<br>Загально - 13<br>Для осіб з інвалідністю - 2"},"styleUrl":"#icon-1644-9C27B0","label-scale":0,"icon-opacity":1,"icon-color":"#9c27b0","icon-scale":1,"icon":"https://www.gstatic.com/mapspro/images/stock/503-wht-blank_maps.png"}},{"type":"Feature","geometry":{"type":"Point","coordinates":[24.018263,49.834281,0]},"properties":{"name":"вул. Ірини Калинець","description":{"@type":"html","value":"3 зона, 3 - 8 сектор<br>20 грн/год<br><br>Способи оплати:<br>Безготівково:<br>- через застосунки UNIP, EasyPay, Приват24<br>Готівкою:<br>- через термінал EasyPay: вул. Вербицького, 6<br><br>Кількість паркувальних місць:<br>Загально - 13<br>Для осіб з інвалідністю - 2"},"styleUrl":"#icon-1644-9C27B0","label-scale":0,"icon-opacity":1,"icon-color":"#9c27b0","icon-scale":1,"icon":"https://www.gstatic.com/mapspro/images/stock/503-wht-blank_maps.png"}},{"type":"Feature","geometry":{"type":"Point","coordinates":[24.042087,49.838749,0]},"properties":{"name":"вул. Патріарха Димитрія Яреми","description":{"@type":"html","value":"3 зона, 3 - 4 сектор<br>20 грн/год<br><br>Способи оплати:<br>Безготівково:<br>- через застосунки UNIP, EasyPay, Приват24<br>Готівкою:<br>- через термінал EasyPay: вул. Патріарха Димитрія Яреми, 12, 2 (у магазині \"Близенько\")<br>- через термінал Сіті24: вул. Пекарська, 31 (у магазині \"Свій маркет\")<br><br>Кількість паркувальних місць:<br>Загально - 15<br>Для осіб з інвалідністю - 2"},"styleUrl":"#icon-1644-9C27B0","label-scale":0,"icon-opacity":1,"icon-color":"#9c27b0","icon-scale":1,"icon":"https://www.gstatic.com/mapspro/images/stock/503-wht-blank_maps.png"}},{"type":"Feature","geometry":{"type":"Point","coordinates":[24.029673,49.846909,0]},"properties":{"name":"вул. Пильникарська","description":{"@type":"html","value":"3 зона, 3 - 2 сектор<br>20 грн/год<br><br>Способи оплати:<br>Безготівково:<br>- через застосунки UNIP, EasyPay, Приват24<br>Готівкою:<br>- через термінал EasyPay: вул. Богдана Хмельницького, 17<br>- через термінал Сіті24: вул. Богдана Хмельницького, 12 (на зупинці)<br><br>Кількість паркувальних місць:<br>Загально - 13<br>Для осіб з інвалідністю - 2"},"styleUrl":"#icon-1644-9C27B0","label-scale":0,"icon-opacity":1,"icon-color":"#9c27b0","icon-scale":1,"icon":"https://www.gstatic.com/mapspro/images/stock/503-wht-blank_maps.png"}},{"type":"Feature","geometry":{"type":"Point","coordinates":[24.029924,49.830067,0]},"properties":{"name":"вул. Коцюбинського","description":{"@type":"html","value":"3 зона, 3 - 6 сектор<br>20 грн/год<br><br>Способи оплати:<br>Безготівково:<br>- через застосунки UNIP, EasyPay, Приват24<br>Готівкою:<br>- через термінал EasyPay: вул. І. Франка, 66<br>- через термінал Сіті24: вул. І.Франка,69 (у магазині \"Близенько\")<br><br>Кількість паркувальних місць:<br>Загально - 16<br>Для осіб з інвалідністю - 2"},"styleUrl":"#icon-1644-9C27B0","label-scale":0,"icon-opacity":1,"icon-color":"#9c27b0","icon-scale":1,"icon":"https://www.gstatic.com/mapspro/images/stock/503-wht-blank_maps.png"}},{"type":"Feature","geometry":{"type":"Point","coordinates":[24.030769,49.832141,0]},"properties":{"name":"вул. Кирила і Мефодія","description":{"@type":"html","value":"3 зона, 3 - 6 сектор<br>20 грн/год<br><br>Способи оплати:<br>Безготівково:<br>- через застосунки UNIP, EasyPay, Приват24<br>Готівкою:<br>- через термінал EasyPay: вул. Грушевського, 9, 7 (маг. \"Близенько\")<br><br>Кількість паркувальних місць:<br>Загально - 7<br>Для осіб з інвалідністю - 1"},"styleUrl":"#icon-1644-9C27B0","label-scale":0,"icon-opacity":1,"icon-color":"#9c27b0","icon-scale":1,"icon":"https://www.gstatic.com/mapspro/images/stock/503-wht-blank_maps.png"}},{"type":"Feature","geometry":{"type":"Point","coordinates":[24.04002,49.833472,0]},"properties":{"name":"вул. Дороша","description":{"@type":"html","value":"3 зона, 3 - 4 сектор<br>20 грн/год<br><br>Способи оплати:<br>Безготівково:<br>- через застосунки UNIP, EasyPay, Приват24<br>Готівкою:<br>- через термінал EasyPay: вул. Зелена, 29, вул. Левицького,37<br><br>Кількість паркувальних місць:<br>Загально - 15<br>Для осіб з інвалідністю - 2"},"styleUrl":"#icon-1644-9C27B0","label-scale":0,"icon-opacity":1,"icon-color":"#9c27b0","icon-scale":1,"icon":"https://www.gstatic.com/mapspro/images/stock/503-wht-blank_maps.png"}},{"type":"Feature","geometry":{"type":"Point","coordinates":[24.038545,49.837354,0]},"properties":{"name":"вул. Туган-Барановського","description":{"@type":"html","value":"3 зона, 3 - 4 сектор<br>20 грн/год<br><br>Способи оплати:<br>Безготівково:<br>- через застосунки UNIP, EasyPay, Приват24<br>Готівкою:<br>- через термінал EasyPay: вул. Пекарська, 26<br>- через термінали Сіті24: вул. Пекарська, 11а (у магазині \"Hud Fud\"), вул. Тершаковців,1 9 у магазині \"Рукавичка\")<br><br>Кількість паркувальних місць:<br>Загально - 30<br>Для осіб з інвалідністю - 3"},"styleUrl":"#icon-1644-9C27B0","label-scale":0,"icon-opacity":1,"icon-color":"#9c27b0","icon-scale":1,"icon":"https://www.gstatic.com/mapspro/images/stock/503-wht-blank_maps.png"}},{"type":"Feature","geometry":{"type":"Point","coordinates":[24.027117,49.847196,0]},"properties":{"name":"пл. Святого Теодора","description":{"@type":"html","value":"3 зона, 3 - 1 сектор<br>20 грн/год<br><br>Способи оплати:<br>Безготівково:<br>- через застосунки UNIP, EasyPay, Приват24<br>Готівкою:<br>- через термінал EasyPay: пл. Святого Теодора, 11<br><br>Кількість паркувальних місць:<br>Загально - 22<br>Для осіб з інвалідністю - 3"},"styleUrl":"#icon-1644-9C27B0","label-scale":0,"icon-opacity":1,"icon-color":"#9c27b0","icon-scale":1,"icon":"https://www.gstatic.com/mapspro/images/stock/503-wht-blank_maps.png"}},{"type":"Feature","geometry":{"type":"Point","coordinates":[24.025928,49.829178,0]},"properties":{"name":"вул. Зарицьких","description":{"@type":"html","value":"3 зона, 3 - 6 сектор<br>20 грн/год<br><br>Способи оплати:<br>Безготівково:<br>- через застосунки UNIP, EasyPay, Приват24<br>Готівкою:<br>- через термінал EasyPay: навпроти вул. Зарицьких, 18<br>- через термінал Сіті24: вул. Зарицьких, 5 (у магазині \"Близенько\")<br> <br>Кількість паркувальних місць:<br>Загально - 59<br>Для осіб з інвалідністю - 6"},"styleUrl":"#icon-1644-9C27B0","label-scale":0,"icon-opacity":1,"icon-color":"#9c27b0","icon-scale":1,"icon":"https://www.gstatic.com/mapspro/images/stock/503-wht-blank_maps.png"}},{"type":"Feature","geometry":{"type":"Point","coordinates":[24.044613,49.82786,0]},"properties":{"name":"вул. Водогінна","description":{"@type":"html","value":"3 зона, 3 - 5 сектор<br>20 грн/год<br><br>Способи оплати:<br>Безготівково:<br>- через застосунки UNIP, EasyPay, Приват24<br>Готівкою:<br>- через термінал EasyPay: вул. Зелена, 77а<br><br>Кількість паркувальних місць:<br>Загально - 16<br>Для осіб з інвалідністю - 2"},"styleUrl":"#icon-1644-9C27B0","label-scale":0,"icon-opacity":1,"icon-color":"#9c27b0","icon-scale":1,"icon":"https://www.gstatic.com/mapspro/images/stock/503-wht-blank_maps.png"}},{"type":"Feature","geometry":{"type":"Point","coordinates":[24.019717,49.841107,0]},"properties":{"name":"вул. Щепкіна","description":{"@type":"html","value":"3 зона, 3 - 7 сектор<br>20 грн/год<br><br>Способи оплати:<br>Безготівково:<br>- через застосунки UNIP, EasyPay, Приват24<br>Готівкою:<br>- через термінал EasyPay: вул. Городоцька, 37, 51<br>- через термінал Сіті24: вул. Лепкого, 11, вул. Огієнка, 8 (у магазині \"Свій маркет)<br><br>Кількість паркувальних місць:<br>Загально - 6<br>Для осіб з інвалідністю - 1"},"styleUrl":"#icon-1644-9C27B0","label-scale":0,"icon-opacity":1,"icon-color":"#9c27b0","icon-scale":1,"icon":"https://www.gstatic.com/mapspro/images/stock/503-wht-blank_maps.png"}},{"type":"Feature","geometry":{"type":"Point","coordinates":[24.03042,49.829465,0]},"properties":{"name":"вул. Генерала М. Арсенича","description":{"@type":"html","value":"3 зона, 3 - 6 сектор<br>20 грн/год<br><br>Способи оплати:<br>Безготівково:<br>- через застосунки UNIP, EasyPay, Приват24<br>Готівкою:<br>- через термінал EasyPay: навпроти вул. Зарицьких, 18, вул. І. Франка, 79<br>- через термінал Сіті24: вул. Зарицьких, 5 (у магазині \"Близенько\")<br><br>Кількість паркувальних місць:<br>Загально - 10<br>Для осіб з інвалідністю - 1"},"styleUrl":"#icon-1644-9C27B0","label-scale":0,"icon-opacity":1,"icon-color":"#9c27b0","icon-scale":1,"icon":"https://www.gstatic.com/mapspro/images/stock/503-wht-blank_maps.png"}},{"type":"Feature","geometry":{"type":"Point","coordinates":[24.050061,49.838246,0]},"properties":{"name":"вул. Юрія Руфа","description":{"@type":"html","value":"3 зона, 3 - 4 сектор<br>20 грн/год<br><br>Способи оплати:<br>Безготівково:<br>- через застосунки UNIP, EasyPay, Приват24<br>Готівкою:<br>- через термінал EasyPay: вул. Юрія Руфа, 4, 19 (магазин \"Маркет Економ\")<br><br>Кількість паркувальних місць:<br>Загально - 34<br>Для осіб з інвалідністю - 4"},"styleUrl":"#icon-1644-9C27B0","label-scale":0,"icon-opacity":1,"icon-color":"#9c27b0","icon-scale":1,"icon":"https://www.gstatic.com/mapspro/images/stock/503-wht-blank_maps.png"}},{"type":"Feature","geometry":{"type":"Point","coordinates":[24.034577,49.832147,0]},"properties":{"name":"вул. М.Костомарова","description":{"@type":"html","value":"3 зона, 3 - 5 сектор<br>20 грн/год<br><br>Способи оплати:<br>Безготівково:<br>- через застосунки UNIP, EasyPay, Приват24<br>Готівкою:<br>- через термінал EasyPay: вул. Шота Руставелі, 4, вул. Шота Руставелі, 4 (магазин \"Сім23\")<br>- через термінали Сіті24: вул. Костомарова 1-3 (пекарня \"Ваш Лаваш\"), вул. І.Франка, 35 (у магазині \"Близенько\")<br><br>Кількість паркувальних місць:<br>Загально - 12<br>Для осіб з інвалідністю - 2"},"styleUrl":"#icon-1644-9C27B0","label-scale":0,"icon-opacity":1,"icon-color":"#9c27b0","icon-scale":1,"icon":"https://www.gstatic.com/mapspro/images/stock/503-wht-blank_maps.png"}},{"type":"Feature","geometry":{"type":"Point","coordinates":[24.019755,49.844026,0]},"properties":{"name":"вул.Академіка Р.Кучера","description":{"@type":"html","value":"3 зона, 3 - 5 сектор<br>20 грн/год<br><br>Способи оплати:<br>Безготівково:<br>- через застосунки UNIP, EasyPay, Приват24<br>Готівкою:<br>- через термінал EasyPay: вул. Городоцька, 37<br>- через термінал Сіті24: вул. Шолом Алейхема, 1 (у магазині \"Воля\")<br><br>Кількість паркувальних місць:<br>Загально - 10<br>Для осіб з інвалідністю - 1"},"styleUrl":"#icon-1644-9C27B0","label-scale":0,"icon-opacity":1,"icon-color":"#9c27b0","icon-scale":1,"icon":"https://www.gstatic.com/mapspro/images/stock/503-wht-blank_maps.png"}},{"type":"Feature","geometry":{"type":"Point","coordinates":[24.015964,49.846656,0]},"properties":{"name":"вул. Клепарівська","description":{"@type":"html","value":"3 зона, 3 - 1 сектор<br>20 грн/год<br><br>Способи оплати:<br>Безготівково:<br>- через застосунки UNIP, EasyPay, Приват24<br>Готівкою:<br>- через термінал EasyPay: вул. Клепарівська, 16 (біля входу в Краківський ринок)<br><br>Кількість паркувальних місць:<br>Загально - 35<br>Для осіб з інвалідністю - 4"},"styleUrl":"#icon-1644-9C27B0","label-scale":0,"icon-opacity":1,"icon-color":"#9c27b0","icon-scale":1,"icon":"https://www.gstatic.com/mapspro/images/stock/503-wht-blank_maps.png"}},{"type":"Feature","geometry":{"type":"Point","coordinates":[24.04685,49.829755,0]},"properties":{"name":"вул. Студентська","description":{"@type":"html","value":"3 зона, 3 - 4 сектор<br>20 грн/год<br><br>Способи оплати:<br>Безготівково:<br>- через застосунки UNIP, EasyPay, Приват24<br>Готівкою:<br>- через термінали EasyPay: вул. Зелена,56, 77 (тролейбусна зупинка)<br><br>Кількість паркувальних місць:<br>Загально - 22<br>Для осіб з інвалідністю - 2"},"styleUrl":"#icon-1644-9C27B0","label-scale":0,"icon-opacity":1,"icon-color":"#9c27b0","icon-scale":1,"icon":"https://www.gstatic.com/mapspro/images/stock/503-wht-blank_maps.png"}},{"type":"Feature","geometry":{"type":"Point","coordinates":[24.045224,49.831119,0]},"properties":{"name":"вул. Дніпровська","description":{"@type":"html","value":"3 зона, 3 - 4 сектор<br>20 грн/год<br><br>Способи оплати:<br>Безготівково:<br>- через застосунки UNIP, EasyPay, Приват24<br>Готівкою:<br>- через термінали EasyPay: вул. Зелена,56, 77 (тролейбусна зупинка)<br><br>Кількість паркувальних місць:<br>Загально - 17<br>Для осіб з інвалідністю - 2"},"styleUrl":"#icon-1644-9C27B0","label-scale":0,"icon-opacity":1,"icon-color":"#9c27b0","icon-scale":1,"icon":"https://www.gstatic.com/mapspro/images/stock/503-wht-blank_maps.png"}},{"type":"Feature","geometry":{"type":"Point","coordinates":[24.017579,49.840429,0]},"properties":{"name":"вул. Гоголя","description":{"@type":"html","value":"3 зона, 3 - 7 сектор<br>20 грн/год<br><br>Способи оплати:<br>Безготівково:<br>- через застосунки UNIP, EasyPay, Приват24<br>Готівкою:<br>- через термінал EasyPay: вул. Городоцька, 67<br><br>Кількість паркувальних місць:<br>Загально - 19<br>Для осіб з інвалідністю - 2"},"styleUrl":"#icon-1644-9C27B0","label-scale":0,"icon-opacity":1,"icon-color":"#9c27b0","icon-scale":1,"icon":"https://www.gstatic.com/mapspro/images/stock/503-wht-blank_maps.png"}},{"type":"Feature","geometry":{"type":"Point","coordinates":[24.031621,49.830454,0]},"properties":{"name":"вул. І. Франка","description":{"@type":"html","value":"3 зона, 3 - 6 сектор<br>20 грн/год<br><br>Способи оплати:<br>Безготівково:<br>- через застосунки UNIP, EasyPay, Приват24<br>Готівкою:<br>- через термінал EasyPay: І.Франка,66 (зупинка гр.тра-ту)<br>- через термінал Сіті24: вул. І.Франка, 69 (у магазині \"Близенько\")<br><br>Кількість паркувальних місць:<br>Загально - 5<br>Для осіб з інвалідністю - 1"},"styleUrl":"#icon-1644-9C27B0","label-scale":0,"icon-opacity":1,"icon-color":"#9c27b0","icon-scale":1,"icon":"https://www.gstatic.com/mapspro/images/stock/503-wht-blank_maps.png"}},{"type":"Feature","geometry":{"type":"Point","coordinates":[24.025577,49.848807,0]},"properties":{"name":"вул. Ак. Люльки","description":{"@type":"html","value":"3 зона, 3 - 1 сектор<br>20 грн/год<br><br>Способи оплати:<br>Безготівково:<br>- через застосунки UNIP, EasyPay, Приват24<br>Готівкою:<br>- через термінали EasyPay: вул. Куліша,34,43<br><br>Кількість паркувальних місць:<br>Загально - 7<br>Для осіб з інвалідністю - 1"},"styleUrl":"#icon-1644-9C27B0","label-scale":0,"icon-opacity":1,"icon-color":"#9c27b0","icon-scale":1,"icon":"https://www.gstatic.com/mapspro/images/stock/503-wht-blank_maps.png"}},{"type":"Feature","geometry":{"type":"Point","coordinates":[24.017348,49.836748,0]},"properties":{"name":"вул. І. Вакарчука","description":{"@type":"html","value":"3 зона, 3 - 7 сектор<br>20 грн/год<br><br>Способи оплати:<br>Безготівково:<br>- через застосунки UNIP, EasyPay, Приват24<br>Готівкою:<br>- через термінал EasyPay: вул. Листопадового Чину, 11 (магазин \"Маркет\")<br><br>Кількість паркувальних місць:<br>Загально - 15<br>Для осіб з інвалідністю - 2"},"styleUrl":"#icon-1644-9C27B0","label-scale":0,"icon-opacity":1,"icon-color":"#9c27b0","icon-scale":1,"icon":"https://www.gstatic.com/mapspro/images/stock/503-wht-blank_maps.png"}},{"type":"Feature","geometry":{"type":"Point","coordinates":[24.046811,49.830718,0]},"properties":{"name":"вул. Володимира Івасюка","description":{"@type":"html","value":"3 зона, 3 - 4 сектор<br>20 грн/год<br><br>Способи оплати:<br>Безготівково:<br>- через застосунки UNIP, EasyPay, Приват24<br>Готівкою:<br>- через термінали EasyPay: вул. Зелена, 56, 77 (тролейбусна зупинка)<br>- через термінал Сіті24: вул. К. Левицького, 37<br><br>Кількість паркувальних місць:<br>Загально - 26<br>Для осіб з інвалідністю - 3"},"styleUrl":"#icon-1644-9C27B0","label-scale":0,"icon-opacity":1,"icon-color":"#9c27b0","icon-scale":1,"icon":"https://www.gstatic.com/mapspro/images/stock/503-wht-blank_maps.png"}},{"type":"Feature","geometry":{"type":"Point","coordinates":[24.011604,49.83341,0]},"properties":{"name":"вул. Японська","description":{"@type":"html","value":"3 зона, 3 - 8 сектор<br>20 грн/год<br><br>Способи оплати:<br>Безготівково:<br>- через застосунки UNIP, EasyPay, Приват24<br>Готівкою:<br>- через термінал EasyPay: вул. Коновальця,7 <br><br>Кількість паркувальних місць:<br>Загально - 27<br>Для осіб з інвалідністю - 3"},"styleUrl":"#icon-1644-9C27B0","label-scale":0,"icon-opacity":1,"icon-color":"#9c27b0","icon-scale":1,"icon":"https://www.gstatic.com/mapspro/images/stock/503-wht-blank_maps.png"}},{"type":"Feature","geometry":{"type":"Point","coordinates":[24.014403,49.833272,0]},"properties":{"name":"вул.І Богуна","description":{"@type":"html","value":"3 зона, 3 - 8 сектор<br>20 грн/год<br><br>Способи оплати:<br>Безготівково:<br>- через застосунки UNIP, EasyPay, Приват24<br>Готівкою:<br>- через термінал EasyPay: вул. А.Сахарова,8 (у супермаркеті \"Близенько\")<br><br>Кількість паркувальних місць:<br>Загально - 17<br>Для осіб з інвалідністю - 2"},"styleUrl":"#icon-1644-9C27B0","label-scale":0,"icon-opacity":1,"icon-color":"#9c27b0","icon-scale":1,"icon":"https://www.gstatic.com/mapspro/images/stock/503-wht-blank_maps.png"}},{"type":"Feature","geometry":{"type":"Point","coordinates":[24.013282,49.834263,0]},"properties":{"name":"вул. Глибока, 2","description":{"@type":"html","value":"3 зона, 3 - 8 сектор<br>20 грн/год<br><br>Способи оплати:<br>Безготівково:<br>- через застосунки UNIP, EasyPay, Приват24<br>Готівкою:<br>- через термінал EasyPay: вул. Бандери, 29<br>- через термінали Сіті24: вул. Глибока, 20 (у магазині \"Близенько\") вул. С. Бандери, 29<br><br>Кількість паркувальних місць:<br>Загально - 17<br>Для осіб з інвалідністю - 2"},"styleUrl":"#icon-1644-9C27B0","label-scale":0,"icon-opacity":1,"icon-color":"#9c27b0","icon-scale":1,"icon":"https://www.gstatic.com/mapspro/images/stock/503-wht-blank_maps.png"}},{"type":"Feature","geometry":{"type":"Point","coordinates":[24.0116,49.83841,0]},"properties":{"name":"вул. Озаркевича","description":{"@type":"html","value":"3 зона, 3 - 9 сектор<br>20 грн/год<br><br>Способи оплати:<br>Безготівково:<br>- через застосунки UNIP, EasyPay, Приват24<br>Готівкою:<br>- через термінал EasyPay: вул. Городоцька, 50; вул. Листопадового Чину, 11 (маг. \"Маркет\")<br><br>Кількість паркувальних місць:<br>Загально - 27<br>Для осіб з інвалідністю - 3"},"styleUrl":"#icon-1644-9C27B0","label-scale":0,"icon-opacity":1,"icon-color":"#9c27b0","icon-scale":1,"icon":"https://www.gstatic.com/mapspro/images/stock/503-wht-blank_maps.png"}},{"type":"Feature","geometry":{"type":"Point","coordinates":[24.041411,49.835816,0]},"properties":{"name":"вул. Тершаковців","description":{"@type":"html","value":"3 зона, 3 - 4 сектор<br>20 грн/год<br><br>Способи оплати:<br>Безготівково:<br>- через застосунки UNIP, EasyPay, Приват24<br>Готівкою:<br>- через термінал EasyPay: вул. Пекарська, 33, вул. К.Левицького, 37,вул. Тершаковців,1 <br>- через термінал Сіті24: вул. Тершаковців, 1<br><br>Кількість паркувальних місць:<br>Загально - 27<br>Для осіб з інвалідністю - 3"},"styleUrl":"#icon-1644-9C27B0","label-scale":0,"icon-opacity":1,"icon-color":"#9c27b0","icon-scale":1,"icon":"https://www.gstatic.com/mapspro/images/stock/503-wht-blank_maps.png"}},{"type":"Feature","geometry":{"type":"Point","coordinates":[24.030642,49.830833,0]},"properties":{"name":"вул. Є.Гладишевського","description":{"@type":"html","value":"3 зона, 3 - 6 сектор<br>20 грн/год<br><br>Способи оплати:<br>Безготівково:<br>- через застосунки UNIP, EasyPay, Приват24<br>Готівкою:<br>- через термінал EasyPay: вул. І. Франка, 66<br>- через термінал Сіті24: вул. І.Франка,69 (у магазині \"Близенько\")<br><br>Кількість паркувальних місць:<br>Загально - 24<br>Для осіб з інвалідністю - 3"},"styleUrl":"#icon-1644-9C27B0","label-scale":0,"icon-opacity":1,"icon-color":"#9c27b0","icon-scale":1,"icon":"https://www.gstatic.com/mapspro/images/stock/503-wht-blank_maps.png"}},{"type":"Feature","geometry":{"type":"Point","coordinates":[24.016355,49.844279,0]},"properties":{"name":"вул. Вільна","description":{"@type":"html","value":"3 зона, 3 - 10 сектор<br>20 грн/год<br><br>Способи оплати:<br>Безготівково:<br>- через застосунки UNIP, EasyPay, Приват24<br>Готівкою:<br>- через термінал EasyPay: вул. Шевченка, 12, вул. Клепарівська, 16 (біля входу у Краківський ринок) <br>- через термінал Сіті24: вул. Шевченка, 14<br><br>Кількість паркувальних місць:<br>Загально - 10<br>Для осіб з інвалідністю - 1"},"styleUrl":"#icon-1644-9C27B0","label-scale":0,"icon-opacity":1,"icon-color":"#9c27b0","icon-scale":1,"icon":"https://www.gstatic.com/mapspro/images/stock/503-wht-blank_maps.png"}},{"type":"Feature","geometry":{"type":"Point","coordinates":[24.012593,49.833606,0]},"properties":{"name":"вул. Новий Світ","description":{"@type":"html","value":"3 зона, 3 - 8 сектор<br>20 грн/год<br><br>Способи оплати:<br>Безготівково:<br>- через застосунки UNIP, EasyPay, Приват24<br>Готівкою:<br>- через термінал EasyPay: вул. Київська,5<br>- через термінал Сіті24: вул. Степана Бандери, 29 (у магазині \"Близенько\")<br><br>Кількість паркувальних місць:<br>Загально - 25<br>Для осіб з інвалідністю - 3"},"styleUrl":"#icon-1644-9C27B0","label-scale":0,"icon-opacity":1,"icon-color":"#9c27b0","icon-scale":1,"icon":"https://www.gstatic.com/mapspro/images/stock/503-wht-blank_maps.png"}},{"type":"Feature","geometry":{"type":"Point","coordinates":[24.036007,49.826539,0]},"properties":{"name":"вул. Снопківська","description":{"@type":"html","value":"3 зона, 3 - 5 сектор<br>20 грн/год<br><br>Способи оплати:<br>Безготівково:<br>- через застосунки UNIP, EasyPay, Приват24<br>Готівкою:<br>- через термінал EasyPay: вул. Шота Руставеллі,40 ( у магазині \"Рукавичка\")<br><br>Кількість паркувальних місць:<br>Загально - 48<br>Для осіб з інвалідністю - 5"},"styleUrl":"#icon-1644-9C27B0","label-scale":0,"icon-opacity":1,"icon-color":"#9c27b0","icon-scale":1,"icon":"https://www.gstatic.com/mapspro/images/stock/503-wht-blank_maps.png"}},{"type":"Feature","geometry":{"type":"Point","coordinates":[24.031643,49.831389,0]},"properties":{"name":"вул. Кобилянської","description":{"@type":"html","value":"3 зона, 3 - 6 сектор<br>20 грн/год<br><br>Способи оплати:<br>Безготівково:<br>- через застосунки UNIP, EasyPay, Приват24<br>Готівкою:<br>- через термінал EasyPay: вул. І. Франка, 66<br><br>Кількість паркувальних місць:<br>Загально - 10<br>Для осіб з інвалідністю - 1"},"styleUrl":"#icon-1644-9C27B0","label-scale":0,"icon-opacity":1,"icon-color":"#9c27b0","icon-scale":1,"icon":"https://www.gstatic.com/mapspro/images/stock/503-wht-blank_maps.png"}},{"type":"Feature","geometry":{"type":"Point","coordinates":[24.016129,49.836299,0]},"properties":{"name":"вул. Устияновича","description":{"@type":"html","value":"3 зона, 3 - 7 сектор<br>20 грн/год<br><br>Способи оплати:<br>Безготівково:<br>- через застосунки UNIP, EasyPay, Приват24<br>Готівкою:<br>- через термінал EasyPay: вул. С. Бандери, 17<br><br>Кількість паркувальних місць:<br>Загально - 6<br>Для осіб з інвалідністю - 1"},"styleUrl":"#icon-1644-9C27B0","label-scale":0,"icon-opacity":1,"icon-color":"#9c27b0","icon-scale":1,"icon":"https://www.gstatic.com/mapspro/images/stock/503-wht-blank_maps.png"}},{"type":"Feature","geometry":{"type":"Point","coordinates":[24.029393,49.829213,0]},"properties":{"name":"вул. Турецька","description":{"@type":"html","value":"3 зона, 3 - 6 сектор<br>20 грн/год<br><br>Способи оплати:<br>Безготівково:<br>- через застосунки UNIP, EasyPay, Приват24<br>Готівкою:<br>- через термінал EasyPay: навпроти буд.18 на вул. Зарицьких<br><br>Кількість паркувальних місць:<br>Загально - 7<br>Для осіб з інвалідністю - 1"},"styleUrl":"#icon-1644-9C27B0","label-scale":0,"icon-opacity":1,"icon-color":"#9c27b0","icon-scale":1,"icon":"https://www.gstatic.com/mapspro/images/stock/503-wht-blank_maps.png"}},{"type":"Feature","geometry":{"type":"Point","coordinates":[24.018449,49.83687,0]},"properties":{"name":"вул. Ірини Фаріон","description":{"@type":"html","value":"3 зона<br>20 грн/год<br><br>Способи оплати:<br>Безготівково:<br>- через застосунки UNIP, EasyPay, Приват24<br>Готівкою:<br>- через термінал EasyPay: вул. Дорошенка, 37 (у маг. \"Рукавичка\"), вул. Листопадового Чину, 11<br> "},"styleUrl":"#icon-1644-9C27B0","label-scale":0,"icon-opacity":1,"icon-color":"#9c27b0","icon-scale":1,"icon":"https://www.gstatic.com/mapspro/images/stock/503-wht-blank_maps.png"}},{"type":"Feature","geometry":{"type":"Point","coordinates":[24.048815,49.840084,0]},"properties":{"name":"вул. Кармалюка","description":{"@type":"html","value":"3 зона, 3-4 сектор<br>20 грн/год<br><br>Способи оплати:<br>Безготівково:<br>- через застосунки UNIP, EasyPay, Приват24<br>Готівкою:<br>- вул. Ю.Руфа,4 (біля AROMA KAVA), <br>- вул. Личаківська, 58 (зупинка громадського транспорту)"},"styleUrl":"#icon-1644-9C27B0","label-scale":0,"icon-opacity":1,"icon-color":"#9c27b0","icon-scale":1,"icon":"https://www.gstatic.com/mapspro/images/stock/503-wht-blank_maps.png"}},{"type":"Feature","geometry":{"type":"Point","coordinates":[24.075217,49.835737,0]},"properties":{"name":"вул. Личаківська","description":{"@type":"html","value":"3 зона, 3-3 сектор<br>20 грн/год<br><br>Способи оплати:<br>Безготівково:<br>- через застосунки UNIP, EasyPay, Приват24<br>Готівкою:<br>- вул. Личаківська, 55, <br>- вул. Личаківська, 55 (вхід у ринок), <br>- вул. Чернігівська, 2 (у супермаркеті \"Рукавичка\")"},"styleUrl":"#icon-1644-9C27B0","label-scale":0,"icon-opacity":1,"icon-color":"#9c27b0","icon-scale":1,"icon":"https://www.gstatic.com/mapspro/images/stock/503-wht-blank_maps.png"}},{"type":"Feature","geometry":{"type":"Point","coordinates":[24.007564,49.837706,0]},"properties":{"name":"вул. Меретина","description":{"@type":"html","value":"3 зона, 3-9 сектор<br>20 грн/год<br><br>Способи оплати:<br>Безготівково:<br>- через застосунки UNIP, EasyPay, Приват24<br>Готівкою:<br>- вул. Городоцька, 113"},"styleUrl":"#icon-1644-9C27B0","label-scale":0,"icon-opacity":1,"icon-color":"#9c27b0","icon-scale":1,"icon":"https://www.gstatic.com/mapspro/images/stock/503-wht-blank_maps.png"}},{"type":"Feature","geometry":{"type":"Point","coordinates":[24.05772,49.795281,0]},"properties":{"name":"просп. Червоної Калини","description":{"@type":"html","value":"(від вул. Зубрівська до вул. О.Довженка)<br><br>4 зона, 4 сектор<br>15 грн/год<br><br>Способи оплати:<br>Безготівково:<br>- через застосунки UNIP, EasyPay, Приват24<br>Готівкою:<br>через термінали EasyPay:<br>- пр.Червоної Калини,61, <br>- пр.Червоної Калини,77, <br>- вул. Довженка,2, <br>- пр.Червоної Калини, 49"},"styleUrl":"#icon-1644-F57C00","label-scale":0,"icon-opacity":1,"icon-color":"#f57c00","icon-scale":1,"icon":"https://www.gstatic.com/mapspro/images/stock/503-wht-blank_maps.png"}},{"type":"Feature","geometry":{"type":"Point","coordinates":[24.050192,49.79825,0]},"properties":{"name":"просп. Червоної Калини","description":{"@type":"html","value":"(від буд. № 40 до буд. № 50)<br><br>4 зона, 4 сектор<br>15 грн/год<br><br>Способи оплати:<br>Безготівково:<br>- через застосунки UNIP, EasyPay, Приват24<br>Готівкою:<br>через термінали EasyPay:<br>- пр.Червоної Калини, 36 (біля аптеки Пульс), - пр.Червоної Калини, 54 (вхід у торговий центр GREAT)"},"styleUrl":"#icon-1644-F57C00","label-scale":0,"icon-opacity":1,"icon-color":"#f57c00","icon-scale":1,"icon":"https://www.gstatic.com/mapspro/images/stock/503-wht-blank_maps.png"}},{"type":"Feature","geometry":{"type":"Point","coordinates":[24.040561,49.872717,0]},"properties":{"name":"вул. Гетьмана Мазепи, 25а","description":{"@type":"html","value":"4 зона, 4 сектор<br>15 грн/год<br><br>Способи оплати:<br>Безготівково:<br>- через застосунки UNIP, EasyPay, Приват24<br>Готівкою:<br>через термінали EasyPay:<br>- вул. Гетьмана Мазепи, 25 Д (у маркеті Сім23)"},"styleUrl":"#icon-1644-F57C00","label-scale":0,"icon-opacity":1,"icon-color":"#f57c00","icon-scale":1,"icon":"https://www.gstatic.com/mapspro/images/stock/503-wht-blank_maps.png"}},{"type":"Feature","geometry":{"type":"Point","coordinates":[24.006777,49.839436,0]},"properties":{"name":"вул. Сембратовичів","description":{"@type":"html","value":"4 зона, 4 сектор<br>15 грн/год<br><br>Способи оплати:<br>Безготівково:<br>- через застосунки UNIP, EasyPay, Приват24<br>Готівкою:<br>через термінали EasyPay: <br>- вулиця Сидора Голубовича, 34 (у супермаркеті \"Близенько\")"},"styleUrl":"#icon-1644-F57C00","label-scale":0,"icon-opacity":1,"icon-color":"#f57c00","icon-scale":1,"icon":"https://www.gstatic.com/mapspro/images/stock/503-wht-blank_maps.png"}},{"type":"Feature","geometry":{"type":"Point","coordinates":[24.005139,49.84841,0]},"properties":{"name":"вул. Михайла Яцкова","description":{"@type":"html","value":"4 зона, 4 сектор<br>15 грн/год<br><br>Способи оплати:<br>Безготівково:<br>- через застосунки UNIP, EasyPay, Приват24<br>Готівкою:<br>- через термінали EasyPay: вул. Шевченка,80 (у магаз. \"Близенько\")<br><br>Кількість паркувальних місць:<br>Загально - 22<br>Для осіб з інвалідністю - 3"},"styleUrl":"#icon-1644-F57C00","label-scale":0,"icon-opacity":1,"icon-color":"#f57c00","icon-scale":1,"icon":"https://www.gstatic.com/mapspro/images/stock/503-wht-blank_maps.png"}},{"type":"Feature","geometry":{"type":"Point","coordinates":[24.006583,49.831663,0]},"properties":{"name":"вул. Єфремова","description":{"@type":"html","value":"4 зона, 4 сектор<br>15 грн/год<br><br>Способи оплати:<br>Безготівково:<br>- через застосунки UNIP, EasyPay, Приват24<br>Готівкою:<br>- через термінали EasyPay: вул. Коновальця,50,<br>- вул. Коновальця, 7<br><br>Кількість паркувальних місць:<br>Загально - 41<br>Для осіб з інвалідністю - 4"},"styleUrl":"#icon-1644-F57C00","label-scale":0,"icon-opacity":1,"icon-color":"#f57c00","icon-scale":1,"icon":"https://www.gstatic.com/mapspro/images/stock/503-wht-blank_maps.png"}},{"type":"Feature","geometry":{"type":"Point","coordinates":[24.003166,49.8488,0]},"properties":{"name":"вул. Турянського","description":{"@type":"html","value":"4 зона, 4 сектор<br>15 грн/год<br><br>Способи оплати:<br>Безготівково:<br>- через застосунки UNIP, EasyPay, Приват24<br>Готівкою:<br>- через термінали EasyPay: вул. Шевченка,49, вул. Шевченка,51<br><br>Кількість паркувальних місць:<br>Загально - 15<br>Для осіб з інвалідністю - 2"},"styleUrl":"#icon-1644-F57C00","label-scale":0,"icon-opacity":1,"icon-color":"#f57c00","icon-scale":1,"icon":"https://www.gstatic.com/mapspro/images/stock/503-wht-blank_maps.png"}},{"type":"Feature","geometry":{"type":"Point","coordinates":[24.028365,49.85381,0]},"properties":{"name":"вул. Замарстинівська","description":{"@type":"html","value":"4 зона, 4 сектор<br>15 грн/год<br><br>Способи оплати:<br>Безготівково:<br>- через застосунки UNIP, EasyPay, Приват24<br>Готівкою:<br>- через термінал EasyPay: вул. Замарстинівська,43 (супермаркет \"Рукавичка\"), вул. Замарстинівська, 79 ( у приміщенні медичного протезно ортопедичного центру)<br>- через термінали Сіті24: Замарстинівська, 43 (супермаркет \"Рукавичка\"), вул. Замарстинівська, 55 (магазин \"Близенько\")<br><br>Кількість паркувальних місць:<br>Загально - 26<br>Для осіб з інвалідністю - 3"},"styleUrl":"#icon-1644-F57C00","label-scale":0,"icon-opacity":1,"icon-color":"#f57c00","icon-scale":1,"icon":"https://www.gstatic.com/mapspro/images/stock/503-wht-blank_maps.png"}},{"type":"Feature","geometry":{"type":"Point","coordinates":[24.010492,49.832552,0]},"properties":{"name":"вул. Здоров'я","description":{"@type":"html","value":"4 зона, 4 сектор<br>15 грн/год<br><br>Способи оплати:<br>Безготівково:<br>- через застосунки UNIP, EasyPay, Приват24<br>Готівкою:<br>- через термінал EasyPay: вул. Київська,5<br>- через термінал Сіті24: вул. Глибока, 20 ( у магазині \"Близенько\")<br><br>Кількість паркувальних місць:<br>Загально - 7<br>Для осіб з інвалідністю - 1"},"styleUrl":"#icon-1644-F57C00","label-scale":0,"icon-opacity":1,"icon-color":"#f57c00","icon-scale":1,"icon":"https://www.gstatic.com/mapspro/images/stock/503-wht-blank_maps.png"}},{"type":"Feature","geometry":{"type":"Point","coordinates":[24.026814,49.850963,0]},"properties":{"name":"вул. Долинського","description":{"@type":"html","value":"4 зона, 4 сектор<br>15 грн/год<br><br>Способи оплати:<br>Безготівково:<br>- через застосунки UNIP, EasyPay, Приват24<br>Готівкою:<br>- через термінал EasyPay: вул. Замарстинівська,36 (біля магазину \"Овації\")<br><br>Кількість паркувальних місць:<br>Загально - 21<br>Для осіб з інвалідністю - 3"},"styleUrl":"#icon-1644-F57C00","label-scale":0,"icon-opacity":1,"icon-color":"#f57c00","icon-scale":1,"icon":"https://www.gstatic.com/mapspro/images/stock/503-wht-blank_maps.png"}},{"type":"Feature","geometry":{"type":"Point","coordinates":[24.023999,49.854014,0]},"properties":{"name":"вул. Хімічна","description":{"@type":"html","value":"4 зона, 4 сектор<br>15 грн/год<br><br>Способи оплати:<br>Безготівково:<br>- через застосунки UNIP, EasyPay, Приват24<br>Готівкою:<br>- через термінали EasyPay: вул.Хімічна,22 (біля аптеки \"Знахар\"), Замарстинівська,43 (супермаркет \"Рукавичка\")<br>- через термінал Сіті24: Замарстинівська, 43 (супермаркет \"Рукавичка\")<br><br>Кількість паркувальних місць:<br>Загально - 21<br>Для осіб з інвалідністю - 3"},"styleUrl":"#icon-1644-F57C00","label-scale":0,"icon-opacity":1,"icon-color":"#f57c00","icon-scale":1,"icon":"https://www.gstatic.com/mapspro/images/stock/503-wht-blank_maps.png"}},{"type":"Feature","geometry":{"type":"Point","coordinates":[24.00429,49.83828,0]},"properties":{"name":"вул. Братів Міхновських","description":{"@type":"html","value":"4 зона, 4 сектор<br>15 грн/год<br><br>Способи оплати:<br>Безготівково:<br>- через застосунки UNIP, EasyPay, Приват24<br>Готівкою:<br>- через термінали EasyPay: вул.Городоцька,94;Вул. Городоцька,92 <br>- через термінали Сіті24: вул. Братів Міхновських, 23 (у магазині \"Близенько\"), вул. Шараневича, 1 (магазин \"Наш маркет\")<br><br>Кількість паркувальних місць:<br>Загально - 50<br>Для осіб з інвалідністю - 5"},"styleUrl":"#icon-1644-F57C00","label-scale":0,"icon-opacity":1,"icon-color":"#f57c00","icon-scale":1,"icon":"https://www.gstatic.com/mapspro/images/stock/503-wht-blank_maps.png"}},{"type":"Feature","geometry":{"type":"Point","coordinates":[24.020062,49.859078,0]},"properties":{"name":"просп.Чорновола, 65","description":{"@type":"html","value":"4 зона, 4 сектор<br>15 грн/год<br><br>Способи оплати:<br>Безготівково:<br>- через застосунки UNIP, EasyPay, Приват24<br>Готівкою:<br>- через термінал EasyPay: пр. Чорновола 67А, пр. Чорновола, 14 (АЗК \"ОККО\"), вул. Окуневського, 3<br><br>Кількість паркувальних місць:<br>Загально - 42<br>Для осіб з інвалідністю - 5"},"styleUrl":"#icon-1644-F57C00","label-scale":0,"icon-opacity":1,"icon-color":"#f57c00","icon-scale":1,"icon":"https://www.gstatic.com/mapspro/images/stock/503-wht-blank_maps.png"}},{"type":"Feature","geometry":{"type":"Point","coordinates":[24.022008,49.855218,0]},"properties":{"name":"просп. В. Чорновола, 45","description":{"@type":"html","value":"4 зона, 4 сектор<br>15 грн/год<br><br>Способи оплати:<br>Безготівково:<br>- через застосунки UNIP, EasyPay, Приват24<br>Готівкою:<br>- через термінали EasyPay: пр. В. Чорновола,45, пр. Чорновола, 16І (вхід у Гіпермаркет \"Ашан\")"},"styleUrl":"#icon-1644-F57C00","label-scale":0,"icon-opacity":1,"icon-color":"#f57c00","icon-scale":1,"icon":"https://www.gstatic.com/mapspro/images/stock/503-wht-blank_maps.png"}},{"type":"Feature","geometry":{"type":"Point","coordinates":[24.03316,49.873988,0]},"properties":{"name":"вул. Пилипа Орлика","description":{"@type":"html","value":"4 зона, 4 сектор<br>15 грн/год<br><br>Способи оплати:<br>Безготівково:<br>- через застосунки UNIP, EasyPay, Приват24<br>Готівкою:<br>- через термінал EasyPay: вул. Гетьмана Мазепи, 11а<br><br>Кількість паркувальних місць:<br>Загально - 87<br>Для осіб з інвалідністю - 9"},"styleUrl":"#icon-1644-F57C00","label-scale":0,"icon-opacity":1,"icon-color":"#f57c00","icon-scale":1,"icon":"https://www.gstatic.com/mapspro/images/stock/503-wht-blank_maps.png"}},{"type":"Feature","geometry":{"type":"Point","coordinates":[23.995214,49.838743,0]},"properties":{"name":"пл. Двірцева","description":{"@type":"html","value":"5 зона, 4 сектор<br>15 грн/год<br><br>Способи оплати:<br>Безготівково:<br>- через застосунки UNIP, EasyPay, Приват24<br>Готівкою:<br>- через термінали EasyPay: Чернівецька,13 (у магазині \"Продукти Кулінарія\"),Чернівецька 17 (біля \"Близенько\")<br>вул.Чернівецька (у маркеті \"Хочу все\")<br>вул. Чернівецька (біля пекарні \"Франсуа\")<br>- через термінали Сіті24:<br>Чернівецька 17 (у магазині Близенько)<br><br>Кількість паркувальних місць:<br>Загально - 16<br>Для осіб з інвалідністю - 5"},"styleUrl":"#icon-1644-0097A7","label-scale":0,"icon-opacity":1,"icon-color":"#0097a7","icon-scale":1,"icon":"https://www.gstatic.com/mapspro/images/stock/503-wht-blank_maps.png"}},{"type":"Feature","geometry":{"type":"Point","coordinates":[24.040544,49.847366,0]},"properties":{"name":"вул. Кривоноса","description":{"@type":"html","value":"Зона паркування туристичного транспорту, 95 грн/год<br><br>Способи оплати:<br>Безготівково:<br>- через застосунки UNIP, EasyPay, Приват24<br>Готівкою:<br>- через термінал EasyPay: вул. Винниченка, 22 (біля Порохової вежі)<br><br>Кількість паркувальних місць: 5"},"styleUrl":"#icon-1644-AFB42B","label-scale":0,"icon-opacity":1,"icon-color":"#afb42b","icon-scale":1,"icon":"https://www.gstatic.com/mapspro/images/stock/503-wht-blank_maps.png"}},{"type":"Feature","geometry":{"type":"Point","coordinates":[24.035941,49.84486,0]},"properties":{"name":"вул. Винниченка","description":{"@type":"html","value":"Зона паркування туристичного транспорту, 95 грн/год<br><br>Способи оплати:<br>Безготівково:<br>- через застосунки UNIP, EasyPay, Приват24<br>Готівкою:<br>- через термінал EasyPay: вул. Винниченка, 22 (біля Порохової вежі)<br><br>Кількість паркувальних місць: 8"},"styleUrl":"#icon-1644-AFB42B","label-scale":0,"icon-opacity":1,"icon-color":"#afb42b","icon-scale":1,"icon":"https://www.gstatic.com/mapspro/images/stock/503-wht-blank_maps.png"}},{"type":"Feature","geometry":{"type":"Point","coordinates":[24.020274,49.861756,0]},"properties":{"name":"вул.Торф'яна","description":{"@type":"html","value":"Легкові автомобілі:<br>День - 30грн, Ніч - 30грн, Доба - 45грн, Місяць - 650грн<br>Почергова стоянка двох легкових автомобілів:<br>Місць - 900грн<br>Почергова стоянка одного мікроавтобуса, одного автомобіля :<br>Місяць - 1050грн<br>Почергова стоянка двох мікроавтобусів:<br>Місяць - 1400грн<br>Мікроавтобуси/вантажне авто вантажопідйомністю до 3т:<br>День - 40грн, Ніч - 40грн, Доба - 60грн, Місяць - 800грн<br>Автобуси на основі НЕОПЛАНУ/ вантажне авто вантажопідйомністю до 5т:<br>День - 50грн, Ніч - 50грн, Доба - 90грн, Місяць - 1500грн<br>Вантажне авто на основі ТІР (тягач причіп):<br>День - 60грн, Ніч - 60грн, Доба - 100грн, Місяць - 2500грн"},"styleUrl":"#icon-1644-757575","label-scale":0,"icon-opacity":1,"icon-color":"#757575","icon-scale":1,"icon":"https://www.gstatic.com/mapspro/images/stock/503-wht-blank_maps.png"}}]}